{"type":"FeatureCollection","features":[{"type":"Feature","geometry":{"type":"Point","coordinates":[24.702533,42.100464]},"properties":{"name":"кв. Коматево - последна спирка","band":0,"modes":"bus","arr":["1","20","27"],"off":[0,-0.8]}},{"type":"Feature","geometry":{"type":"Point","coordinates":[24.702533,42.100464]},"properties":{"line":"1","mode":"bus","color":"#0059a9","colorDark":"#00294f","band":0,"off":[-3.4,1.1]}},{"type":"Feature","geometry":{"type":"Point","coordinates":[24.702533,42.100464]},"properties":{"line":"20","mode":"bus","color":"#0059a9","colorDark":"#00294f","band":0,"off":[0,1.1]}},{"type":"Feature","geometry":{"type":"Point","coordinates":[24.702533,42.100464]},"properties":{"line":"27","mode":"bus","color":"#0059a9","colorDark":"#00294f","band":0,"off":[3.4,1.1]}},{"type":"Feature","geometry":{"type":"Point","coordinates":[24.737556,42.185987]},"properties":{"name":"АПК-Карловско шосе","band":0,"modes":"bus","arr":["1","25"],"off":[0,-0.8]}},{"type":"Feature","geometry":{"type":"Point","coordinates":[24.737556,42.185987]},"properties":{"line":"1","mode":"bus","color":"#0059a9","colorDark":"#00294f","band":0,"off":[-1.7,1.1]}},{"type":"Feature","geometry":{"type":"Point","coordinates":[24.737556,42.185987]},"properties":{"line":"25","mode":"bus","color":"#0059a9","colorDark":"#00294f","band":0,"off":[1.7,1.1]}},{"type":"Feature","geometry":{"type":"Point","coordinates":[24.712857,42.156879]},"properties":{"name":"ПУ - бул. България","band":0,"modes":"bus","arr":["4","18","20","44","222"],"off":[0,-0.8]}},{"type":"Feature","geometry":{"type":"Point","coordinates":[24.712857,42.156879]},"properties":{"line":"4","mode":"bus","color":"#0059a9","colorDark":"#00294f","band":0,"off":[-6.8,1.1]}},{"type":"Feature","geometry":{"type":"Point","coordinates":[24.712857,42.156879]},"properties":{"line":"18","mode":"bus","color":"#0059a9","colorDark":"#00294f","band":0,"off":[-3.4,1.1]}},{"type":"Feature","geometry":{"type":"Point","coordinates":[24.712857,42.156879]},"properties":{"line":"20","mode":"bus","color":"#0059a9","colorDark":"#00294f","band":0,"off":[0,1.1]}},{"type":"Feature","geometry":{"type":"Point","coordinates":[24.712857,42.156879]},"properties":{"line":"44","mode":"bus","color":"#0059a9","colorDark":"#00294f","band":0,"off":[3.4,1.1]}},{"type":"Feature","geometry":{"type":"Point","coordinates":[24.712857,42.156879]},"properties":{"line":"222","mode":"bus","color":"#0059a9","colorDark":"#00294f","band":0,"off":[6.8,1.1]}},{"type":"Feature","geometry":{"type":"Point","coordinates":[24.802099,42.142873]},"properties":{"name":"кв. Тракия (а-13)","band":0,"modes":"bus","arr":["4","10","17","22"],"off":[0,-0.8]}},{"type":"Feature","geometry":{"type":"Point","coordinates":[24.802099,42.142873]},"properties":{"name":"Изпитателен център","band":0,"modes":"bus","arr":["4","10","17","22"],"off":[0,-1.9]}},{"type":"Feature","geometry":{"type":"Point","coordinates":[24.802099,42.142873]},"properties":{"line":"4","mode":"bus","color":"#0059a9","colorDark":"#00294f","band":0,"off":[-5.1,1.1]}},{"type":"Feature","geometry":{"type":"Point","coordinates":[24.802099,42.142873]},"properties":{"line":"10","mode":"bus","color":"#0059a9","colorDark":"#00294f","band":0,"off":[-1.7,1.1]}},{"type":"Feature","geometry":{"type":"Point","coordinates":[24.802099,42.142873]},"properties":{"line":"17","mode":"bus","color":"#0059a9","colorDark":"#00294f","band":0,"off":[1.7,1.1]}},{"type":"Feature","geometry":{"type":"Point","coordinates":[24.802099,42.142873]},"properties":{"line":"22","mode":"bus","color":"#0059a9","colorDark":"#00294f","band":0,"off":[5.1,1.1]}},{"type":"Feature","geometry":{"type":"Point","coordinates":[24.677273,42.120085]},"properties":{"name":"Прослав - последна","band":0,"modes":"bus","arr":["6","15","24","66","222"],"off":[0,-0.8]}},{"type":"Feature","geometry":{"type":"Point","coordinates":[24.677273,42.120085]},"properties":{"line":"6","mode":"bus","color":"#0059a9","colorDark":"#00294f","band":0,"off":[-6.8,1.1]}},{"type":"Feature","geometry":{"type":"Point","coordinates":[24.677273,42.120085]},"properties":{"line":"15","mode":"bus","color":"#0059a9","colorDark":"#00294f","band":0,"off":[-3.4,1.1]}},{"type":"Feature","geometry":{"type":"Point","coordinates":[24.677273,42.120085]},"properties":{"line":"24","mode":"bus","color":"#0059a9","colorDark":"#00294f","band":0,"off":[0,1.1]}},{"type":"Feature","geometry":{"type":"Point","coordinates":[24.677273,42.120085]},"properties":{"line":"66","mode":"bus","color":"#0059a9","colorDark":"#00294f","band":0,"off":[3.4,1.1]}},{"type":"Feature","geometry":{"type":"Point","coordinates":[24.677273,42.120085]},"properties":{"line":"222","mode":"bus","color":"#0059a9","colorDark":"#00294f","band":0,"off":[6.8,1.1]}},{"type":"Feature","geometry":{"type":"Point","coordinates":[24.689306,42.127648]},"properties":{"name":"срещу ОДЗ Боряна","band":0,"modes":"bus","arr":["17"],"off":[0,-0.8]}},{"type":"Feature","geometry":{"type":"Point","coordinates":[24.689306,42.127648]},"properties":{"line":"17","mode":"bus","color":"#0059a9","colorDark":"#00294f","band":0,"off":[0,1.1]}},{"type":"Feature","geometry":{"type":"Point","coordinates":[24.783793,42.160064]},"properties":{"name":"кв. Изгрев - обръщало ул. Край","band":0,"modes":"bus","arr":["6","26","36","116"],"off":[0,-0.8]}},{"type":"Feature","geometry":{"type":"Point","coordinates":[24.783793,42.160064]},"properties":{"name":"кв. Изгрев","band":0,"modes":"bus","arr":["6","26","36","116"],"off":[0,-3]}},{"type":"Feature","geometry":{"type":"Point","coordinates":[24.783793,42.160064]},"properties":{"line":"6","mode":"bus","color":"#0059a9","colorDark":"#00294f","band":0,"off":[-5.1,1.1]}},{"type":"Feature","geometry":{"type":"Point","coordinates":[24.783793,42.160064]},"properties":{"line":"26","mode":"bus","color":"#0059a9","colorDark":"#00294f","band":0,"off":[-1.7,1.1]}},{"type":"Feature","geometry":{"type":"Point","coordinates":[24.783793,42.160064]},"properties":{"line":"36","mode":"bus","color":"#0059a9","colorDark":"#00294f","band":0,"off":[1.7,1.1]}},{"type":"Feature","geometry":{"type":"Point","coordinates":[24.783793,42.160064]},"properties":{"line":"116","mode":"bus","color":"#0059a9","colorDark":"#00294f","band":0,"off":[5.1,1.1]}},{"type":"Feature","geometry":{"type":"Point","coordinates":[24.775481,42.166594]},"properties":{"name":"Рогошки гробища -последна спирка","band":0,"modes":"bus","arr":["7"],"off":[0,-0.8]}},{"type":"Feature","geometry":{"type":"Point","coordinates":[24.775481,42.166594]},"properties":{"line":"7","mode":"bus","color":"#0059a9","colorDark":"#00294f","band":0,"off":[0,1.1]}},{"type":"Feature","geometry":{"type":"Point","coordinates":[24.728415,42.106091]},"properties":{"name":"Овощарски институт","band":0,"modes":"bus","arr":["7","113"],"off":[0,-0.8]}},{"type":"Feature","geometry":{"type":"Point","coordinates":[24.728415,42.106091]},"properties":{"line":"7","mode":"bus","color":"#0059a9","colorDark":"#00294f","band":0,"off":[-1.7,1.1]}},{"type":"Feature","geometry":{"type":"Point","coordinates":[24.728415,42.106091]},"properties":{"line":"113","mode":"bus","color":"#0059a9","colorDark":"#00294f","band":0,"off":[1.7,1.1]}},{"type":"Feature","geometry":{"type":"Point","coordinates":[24.778067,42.132917]},"properties":{"name":"жк Тракия (а-12)","band":0,"modes":"bus","arr":["9","21","25","29","66"],"off":[0,-0.8]}},{"type":"Feature","geometry":{"type":"Point","coordinates":[24.778067,42.132917]},"properties":{"line":"9","mode":"bus","color":"#0059a9","colorDark":"#00294f","band":0,"off":[-6.8,1.1]}},{"type":"Feature","geometry":{"type":"Point","coordinates":[24.778067,42.132917]},"properties":{"line":"21","mode":"bus","color":"#0059a9","colorDark":"#00294f","band":0,"off":[-3.4,1.1]}},{"type":"Feature","geometry":{"type":"Point","coordinates":[24.778067,42.132917]},"properties":{"line":"25","mode":"bus","color":"#0059a9","colorDark":"#00294f","band":0,"off":[0,1.1]}},{"type":"Feature","geometry":{"type":"Point","coordinates":[24.778067,42.132917]},"properties":{"line":"29","mode":"bus","color":"#0059a9","colorDark":"#00294f","band":0,"off":[3.4,1.1]}},{"type":"Feature","geometry":{"type":"Point","coordinates":[24.778067,42.132917]},"properties":{"line":"66","mode":"bus","color":"#0059a9","colorDark":"#00294f","band":0,"off":[6.8,1.1]}},{"type":"Feature","geometry":{"type":"Point","coordinates":[24.759102,42.176705]},"properties":{"name":"ИЗК Марица -Брезовко щосе","band":0,"modes":"bus","arr":["9","12","15"],"off":[0,-0.8]}},{"type":"Feature","geometry":{"type":"Point","coordinates":[24.759102,42.176705]},"properties":{"line":"9","mode":"bus","color":"#0059a9","colorDark":"#00294f","band":0,"off":[-3.4,1.1]}},{"type":"Feature","geometry":{"type":"Point","coordinates":[24.759102,42.176705]},"properties":{"line":"12","mode":"bus","color":"#0059a9","colorDark":"#00294f","band":0,"off":[0,1.1]}},{"type":"Feature","geometry":{"type":"Point","coordinates":[24.759102,42.176705]},"properties":{"line":"15","mode":"bus","color":"#0059a9","colorDark":"#00294f","band":0,"off":[3.4,1.1]}},{"type":"Feature","geometry":{"type":"Point","coordinates":[24.701786,42.127825]},"properties":{"name":"кв. Смирненски - ул. Юндола","band":0,"modes":"bus","arr":["10","12","26","29","37"],"off":[0,-0.8]}},{"type":"Feature","geometry":{"type":"Point","coordinates":[24.701786,42.127825]},"properties":{"line":"10","mode":"bus","color":"#0059a9","colorDark":"#00294f","band":0,"off":[-6.8,1.1]}},{"type":"Feature","geometry":{"type":"Point","coordinates":[24.701786,42.127825]},"properties":{"line":"12","mode":"bus","color":"#0059a9","colorDark":"#00294f","band":0,"off":[-3.4,1.1]}},{"type":"Feature","geometry":{"type":"Point","coordinates":[24.701786,42.127825]},"properties":{"line":"26","mode":"bus","color":"#0059a9","colorDark":"#00294f","band":0,"off":[0,1.1]}},{"type":"Feature","geometry":{"type":"Point","coordinates":[24.701786,42.127825]},"properties":{"line":"29","mode":"bus","color":"#0059a9","colorDark":"#00294f","band":0,"off":[3.4,1.1]}},{"type":"Feature","geometry":{"type":"Point","coordinates":[24.701786,42.127825]},"properties":{"line":"37","mode":"bus","color":"#0059a9","colorDark":"#00294f","band":0,"off":[6.8,1.1]}},{"type":"Feature","geometry":{"type":"Point","coordinates":[24.760907,42.103101]},"properties":{"name":"след Митница Кукленско шосе","band":0,"modes":"bus","arr":["11","116"],"off":[0,-0.8]}},{"type":"Feature","geometry":{"type":"Point","coordinates":[24.760907,42.103101]},"properties":{"line":"11","mode":"bus","color":"#0059a9","colorDark":"#00294f","band":0,"off":[-1.7,1.1]}},{"type":"Feature","geometry":{"type":"Point","coordinates":[24.760907,42.103101]},"properties":{"line":"116","mode":"bus","color":"#0059a9","colorDark":"#00294f","band":0,"off":[1.7,1.1]}},{"type":"Feature","geometry":{"type":"Point","coordinates":[24.719971,42.16914]},"properties":{"name":"След бензиностанция Еко","band":0,"modes":"bus","arr":["11"],"off":[0,-0.8]}},{"type":"Feature","geometry":{"type":"Point","coordinates":[24.719971,42.16914]},"properties":{"line":"11","mode":"bus","color":"#0059a9","colorDark":"#00294f","band":0,"off":[0,1.1]}},{"type":"Feature","geometry":{"type":"Point","coordinates":[24.72042,42.125211]},"properties":{"name":"кв. Южен - бул. Ал. Стамболийски","band":0,"modes":"bus","arr":["16","36"],"off":[0,-0.8]}},{"type":"Feature","geometry":{"type":"Point","coordinates":[24.72042,42.125211]},"properties":{"line":"16","mode":"bus","color":"#0059a9","colorDark":"#00294f","band":0,"off":[-1.7,1.1]}},{"type":"Feature","geometry":{"type":"Point","coordinates":[24.72042,42.125211]},"properties":{"line":"36","mode":"bus","color":"#0059a9","colorDark":"#00294f","band":0,"off":[1.7,1.1]}},{"type":"Feature","geometry":{"type":"Point","coordinates":[24.759831,42.162102]},"properties":{"name":"кв. Гагарин - ул. Милеви скали","band":0,"modes":"bus","arr":["16"],"off":[0,-0.8]}},{"type":"Feature","geometry":{"type":"Point","coordinates":[24.759831,42.162102]},"properties":{"line":"16","mode":"bus","color":"#0059a9","colorDark":"#00294f","band":0,"off":[0,1.1]}},{"type":"Feature","geometry":{"type":"Point","coordinates":[24.788993,42.120913]},"properties":{"name":"срещу пожарната","band":0,"modes":"bus","arr":["18"],"off":[0,-0.8]}},{"type":"Feature","geometry":{"type":"Point","coordinates":[24.788993,42.120913]},"properties":{"name":"Недялка Шилева преди пожарната","band":0,"modes":"bus","arr":["18"],"off":[0,-1.9]}},{"type":"Feature","geometry":{"type":"Point","coordinates":[24.788993,42.120913]},"properties":{"line":"18","mode":"bus","color":"#0059a9","colorDark":"#00294f","band":0,"off":[0,1.1]}},{"type":"Feature","geometry":{"type":"Point","coordinates":[24.697508,42.1557]},"properties":{"name":"Хангарите","band":0,"modes":"bus","arr":["18"],"off":[0,-0.8]}},{"type":"Feature","geometry":{"type":"Point","coordinates":[24.697508,42.1557]},"properties":{"line":"18","mode":"bus","color":"#0059a9","colorDark":"#00294f","band":0,"off":[0,1.1]}},{"type":"Feature","geometry":{"type":"Point","coordinates":[24.786174,42.127591]},"properties":{"name":"Колелото на Цар Симеон","band":0,"modes":"bus","arr":["18","44","99"],"off":[0,-0.8]}},{"type":"Feature","geometry":{"type":"Point","coordinates":[24.786174,42.127591]},"properties":{"line":"18","mode":"bus","color":"#0059a9","colorDark":"#00294f","band":0,"off":[-3.4,1.1]}},{"type":"Feature","geometry":{"type":"Point","coordinates":[24.786174,42.127591]},"properties":{"line":"44","mode":"bus","color":"#0059a9","colorDark":"#00294f","band":0,"off":[0,1.1]}},{"type":"Feature","geometry":{"type":"Point","coordinates":[24.786174,42.127591]},"properties":{"line":"99","mode":"bus","color":"#0059a9","colorDark":"#00294f","band":0,"off":[3.4,1.1]}},{"type":"Feature","geometry":{"type":"Point","coordinates":[24.745707,42.16795]},"properties":{"name":"ТК Марица","band":0,"modes":"bus","arr":["21","99"],"off":[0,-0.8]}},{"type":"Feature","geometry":{"type":"Point","coordinates":[24.745707,42.16795]},"properties":{"line":"21","mode":"bus","color":"#0059a9","colorDark":"#00294f","band":0,"off":[-1.7,1.1]}},{"type":"Feature","geometry":{"type":"Point","coordinates":[24.745707,42.16795]},"properties":{"line":"99","mode":"bus","color":"#0059a9","colorDark":"#00294f","band":0,"off":[1.7,1.1]}},{"type":"Feature","geometry":{"type":"Point","coordinates":[24.796781,42.147404]},"properties":{"name":"Кръговото на ДК","band":0,"modes":"bus","arr":["22"],"off":[0,-0.8]}},{"type":"Feature","geometry":{"type":"Point","coordinates":[24.796781,42.147404]},"properties":{"line":"22","mode":"bus","color":"#0059a9","colorDark":"#00294f","band":0,"off":[0,1.1]}},{"type":"Feature","geometry":{"type":"Point","coordinates":[24.723464,42.1506]},"properties":{"name":"Обръщалото на ул. Младежка","band":0,"modes":"bus","arr":["22"],"off":[0,-0.8]}},{"type":"Feature","geometry":{"type":"Point","coordinates":[24.723464,42.1506]},"properties":{"name":"Младежка","band":0,"modes":"bus","arr":["22"],"off":[0,-3]}},{"type":"Feature","geometry":{"type":"Point","coordinates":[24.723464,42.1506]},"properties":{"line":"22","mode":"bus","color":"#0059a9","colorDark":"#00294f","band":0,"off":[0,1.1]}},{"type":"Feature","geometry":{"type":"Point","coordinates":[24.809067,42.138406]},"properties":{"name":"Пречисвателна станция - Ягод.шосе","band":0,"modes":"bus","arr":["22"],"off":[0,-0.8]}},{"type":"Feature","geometry":{"type":"Point","coordinates":[24.809067,42.138406]},"properties":{"line":"22","mode":"bus","color":"#0059a9","colorDark":"#00294f","band":0,"off":[0,1.1]}},{"type":"Feature","geometry":{"type":"Point","coordinates":[24.7802,42.116165]},"properties":{"name":"завод Устрем - Асеновгр. шосе","band":0,"modes":"bus","arr":["24","44"],"off":[0,-0.8]}},{"type":"Feature","geometry":{"type":"Point","coordinates":[24.7802,42.116165]},"properties":{"line":"24","mode":"bus","color":"#0059a9","colorDark":"#00294f","band":0,"off":[-1.7,1.1]}},{"type":"Feature","geometry":{"type":"Point","coordinates":[24.7802,42.116165]},"properties":{"line":"44","mode":"bus","color":"#0059a9","colorDark":"#00294f","band":0,"off":[1.7,1.1]}},{"type":"Feature","geometry":{"type":"Point","coordinates":[24.769722,42.156779]},"properties":{"name":"ЗХА Родина","band":0,"modes":"bus","arr":["27"],"off":[0,-0.8]}},{"type":"Feature","geometry":{"type":"Point","coordinates":[24.769722,42.156779]},"properties":{"line":"27","mode":"bus","color":"#0059a9","colorDark":"#00294f","band":0,"off":[0,1.1]}},{"type":"Feature","geometry":{"type":"Point","coordinates":[24.756069,42.121039]},"properties":{"name":"ЕАЗ - Цар Борис ІІІ","band":0,"modes":"bus","arr":["37"],"off":[0,-0.8]}},{"type":"Feature","geometry":{"type":"Point","coordinates":[24.756069,42.121039]},"properties":{"line":"37","mode":"bus","color":"#0059a9","colorDark":"#00294f","band":0,"off":[0,1.1]}},{"type":"Feature","geometry":{"type":"Point","coordinates":[24.73899,42.170821]},"properties":{"name":"Стъкларски завод - пред портала","band":0,"modes":"bus","arr":["93"],"off":[0,-0.8]}},{"type":"Feature","geometry":{"type":"Point","coordinates":[24.73899,42.170821]},"properties":{"line":"93","mode":"bus","color":"#0059a9","colorDark":"#00294f","band":0,"off":[0,1.1]}},{"type":"Feature","geometry":{"type":"Point","coordinates":[24.775187,42.124582]},"properties":{"name":"Автоелектроника","band":0,"modes":"bus","arr":["93"],"off":[0,-0.8]}},{"type":"Feature","geometry":{"type":"Point","coordinates":[24.775187,42.124582]},"properties":{"line":"93","mode":"bus","color":"#0059a9","colorDark":"#00294f","band":0,"off":[0,1.1]}},{"type":"Feature","geometry":{"type":"Point","coordinates":[24.714779,42.172828]},"properties":{"name":"срещу Димитър Маджаров 2 ЕООД","band":0,"modes":"bus","arr":["93"],"off":[0,-0.8]}},{"type":"Feature","geometry":{"type":"Point","coordinates":[24.714779,42.172828]},"properties":{"name":"пред Димитър Маджаров 2 ЕООД","band":0,"modes":"bus","arr":["93"],"off":[0,-3]}},{"type":"Feature","geometry":{"type":"Point","coordinates":[24.714779,42.172828]},"properties":{"line":"93","mode":"bus","color":"#0059a9","colorDark":"#00294f","band":0,"off":[0,1.1]}},{"type":"Feature","geometry":{"type":"Point","coordinates":[24.796066,42.128195]},"properties":{"name":"2-ра Авто колона","band":0,"modes":"bus","arr":["99"],"off":[0,-0.8]}},{"type":"Feature","geometry":{"type":"Point","coordinates":[24.796066,42.128195]},"properties":{"line":"99","mode":"bus","color":"#0059a9","colorDark":"#00294f","band":0,"off":[0,1.1]}},{"type":"Feature","geometry":{"type":"Point","coordinates":[24.719267,42.163502]},"properties":{"name":"КАТ","band":0,"modes":"bus","arr":["113"],"off":[0,-0.8]}},{"type":"Feature","geometry":{"type":"Point","coordinates":[24.719267,42.163502]},"properties":{"line":"113","mode":"bus","color":"#0059a9","colorDark":"#00294f","band":0,"off":[0,1.1]}},{"type":"Feature","geometry":{"type":"Point","coordinates":[24.702533,42.100464]},"properties":{"name":"кв. Коматево - последна спирка","band":1,"modes":"bus","arr":["1","20","27"],"off":[0,-0.8]}},{"type":"Feature","geometry":{"type":"Point","coordinates":[24.702533,42.100464]},"properties":{"line":"1","mode":"bus","color":"#0059a9","colorDark":"#00294f","band":1,"off":[-3.4,1.1]}},{"type":"Feature","geometry":{"type":"Point","coordinates":[24.702533,42.100464]},"properties":{"line":"20","mode":"bus","color":"#0059a9","colorDark":"#00294f","band":1,"off":[0,1.1]}},{"type":"Feature","geometry":{"type":"Point","coordinates":[24.702533,42.100464]},"properties":{"line":"27","mode":"bus","color":"#0059a9","colorDark":"#00294f","band":1,"off":[3.4,1.1]}},{"type":"Feature","geometry":{"type":"Point","coordinates":[24.737556,42.185987]},"properties":{"name":"АПК-Карловско шосе","band":1,"modes":"bus","arr":["1","25"],"off":[0,-0.8]}},{"type":"Feature","geometry":{"type":"Point","coordinates":[24.737556,42.185987]},"properties":{"line":"1","mode":"bus","color":"#0059a9","colorDark":"#00294f","band":1,"off":[-1.7,1.1]}},{"type":"Feature","geometry":{"type":"Point","coordinates":[24.737556,42.185987]},"properties":{"line":"25","mode":"bus","color":"#0059a9","colorDark":"#00294f","band":1,"off":[1.7,1.1]}},{"type":"Feature","geometry":{"type":"Point","coordinates":[24.712857,42.156879]},"properties":{"name":"ПУ - бул. България","band":1,"modes":"bus","arr":["4","18","20","44","222"],"off":[0,-0.8]}},{"type":"Feature","geometry":{"type":"Point","coordinates":[24.712857,42.156879]},"properties":{"line":"4","mode":"bus","color":"#0059a9","colorDark":"#00294f","band":1,"off":[-6.8,1.1]}},{"type":"Feature","geometry":{"type":"Point","coordinates":[24.712857,42.156879]},"properties":{"line":"18","mode":"bus","color":"#0059a9","colorDark":"#00294f","band":1,"off":[-3.4,1.1]}},{"type":"Feature","geometry":{"type":"Point","coordinates":[24.712857,42.156879]},"properties":{"line":"20","mode":"bus","color":"#0059a9","colorDark":"#00294f","band":1,"off":[0,1.1]}},{"type":"Feature","geometry":{"type":"Point","coordinates":[24.712857,42.156879]},"properties":{"line":"44","mode":"bus","color":"#0059a9","colorDark":"#00294f","band":1,"off":[3.4,1.1]}},{"type":"Feature","geometry":{"type":"Point","coordinates":[24.712857,42.156879]},"properties":{"line":"222","mode":"bus","color":"#0059a9","colorDark":"#00294f","band":1,"off":[6.8,1.1]}},{"type":"Feature","geometry":{"type":"Point","coordinates":[24.798919,42.144034]},"properties":{"name":"кв. Тракия (а-13)","band":1,"modes":"bus","arr":["4","10","17"],"off":[0,-0.8]}},{"type":"Feature","geometry":{"type":"Point","coordinates":[24.798919,42.144034]},"properties":{"line":"4","mode":"bus","color":"#0059a9","colorDark":"#00294f","band":1,"off":[-3.4,1.1]}},{"type":"Feature","geometry":{"type":"Point","coordinates":[24.798919,42.144034]},"properties":{"line":"10","mode":"bus","color":"#0059a9","colorDark":"#00294f","band":1,"off":[0,1.1]}},{"type":"Feature","geometry":{"type":"Point","coordinates":[24.798919,42.144034]},"properties":{"line":"17","mode":"bus","color":"#0059a9","colorDark":"#00294f","band":1,"off":[3.4,1.1]}},{"type":"Feature","geometry":{"type":"Point","coordinates":[24.677273,42.120085]},"properties":{"name":"Прослав - последна","band":1,"modes":"bus","arr":["6","15","24","66","222"],"off":[0,-0.8]}},{"type":"Feature","geometry":{"type":"Point","coordinates":[24.677273,42.120085]},"properties":{"line":"6","mode":"bus","color":"#0059a9","colorDark":"#00294f","band":1,"off":[-6.8,1.1]}},{"type":"Feature","geometry":{"type":"Point","coordinates":[24.677273,42.120085]},"properties":{"line":"15","mode":"bus","color":"#0059a9","colorDark":"#00294f","band":1,"off":[-3.4,1.1]}},{"type":"Feature","geometry":{"type":"Point","coordinates":[24.677273,42.120085]},"properties":{"line":"24","mode":"bus","color":"#0059a9","colorDark":"#00294f","band":1,"off":[0,1.1]}},{"type":"Feature","geometry":{"type":"Point","coordinates":[24.677273,42.120085]},"properties":{"line":"66","mode":"bus","color":"#0059a9","colorDark":"#00294f","band":1,"off":[3.4,1.1]}},{"type":"Feature","geometry":{"type":"Point","coordinates":[24.677273,42.120085]},"properties":{"line":"222","mode":"bus","color":"#0059a9","colorDark":"#00294f","band":1,"off":[6.8,1.1]}},{"type":"Feature","geometry":{"type":"Point","coordinates":[24.689306,42.127648]},"properties":{"name":"срещу ОДЗ Боряна","band":1,"modes":"bus","arr":["17"],"off":[0,-0.8]}},{"type":"Feature","geometry":{"type":"Point","coordinates":[24.689306,42.127648]},"properties":{"line":"17","mode":"bus","color":"#0059a9","colorDark":"#00294f","band":1,"off":[0,1.1]}},{"type":"Feature","geometry":{"type":"Point","coordinates":[24.781387,42.159426]},"properties":{"name":"кв. Изгрев - обръщало ул. Край","band":1,"modes":"bus","arr":["6","26","36"],"off":[0,-0.8]}},{"type":"Feature","geometry":{"type":"Point","coordinates":[24.781387,42.159426]},"properties":{"line":"6","mode":"bus","color":"#0059a9","colorDark":"#00294f","band":1,"off":[-3.4,1.1]}},{"type":"Feature","geometry":{"type":"Point","coordinates":[24.781387,42.159426]},"properties":{"line":"26","mode":"bus","color":"#0059a9","colorDark":"#00294f","band":1,"off":[0,1.1]}},{"type":"Feature","geometry":{"type":"Point","coordinates":[24.781387,42.159426]},"properties":{"line":"36","mode":"bus","color":"#0059a9","colorDark":"#00294f","band":1,"off":[3.4,1.1]}},{"type":"Feature","geometry":{"type":"Point","coordinates":[24.775481,42.166594]},"properties":{"name":"Рогошки гробища -последна спирка","band":1,"modes":"bus","arr":["7"],"off":[0,-0.8]}},{"type":"Feature","geometry":{"type":"Point","coordinates":[24.775481,42.166594]},"properties":{"line":"7","mode":"bus","color":"#0059a9","colorDark":"#00294f","band":1,"off":[0,1.1]}},{"type":"Feature","geometry":{"type":"Point","coordinates":[24.728415,42.106091]},"properties":{"name":"Овощарски институт","band":1,"modes":"bus","arr":["7","113"],"off":[0,-0.8]}},{"type":"Feature","geometry":{"type":"Point","coordinates":[24.728415,42.106091]},"properties":{"line":"7","mode":"bus","color":"#0059a9","colorDark":"#00294f","band":1,"off":[-1.7,1.1]}},{"type":"Feature","geometry":{"type":"Point","coordinates":[24.728415,42.106091]},"properties":{"line":"113","mode":"bus","color":"#0059a9","colorDark":"#00294f","band":1,"off":[1.7,1.1]}},{"type":"Feature","geometry":{"type":"Point","coordinates":[24.778067,42.132917]},"properties":{"name":"жк Тракия (а-12)","band":1,"modes":"bus","arr":["9","21","25","29","66"],"off":[0,-0.8]}},{"type":"Feature","geometry":{"type":"Point","coordinates":[24.778067,42.132917]},"properties":{"line":"9","mode":"bus","color":"#0059a9","colorDark":"#00294f","band":1,"off":[-6.8,1.1]}},{"type":"Feature","geometry":{"type":"Point","coordinates":[24.778067,42.132917]},"properties":{"line":"21","mode":"bus","color":"#0059a9","colorDark":"#00294f","band":1,"off":[-3.4,1.1]}},{"type":"Feature","geometry":{"type":"Point","coordinates":[24.778067,42.132917]},"properties":{"line":"25","mode":"bus","color":"#0059a9","colorDark":"#00294f","band":1,"off":[0,1.1]}},{"type":"Feature","geometry":{"type":"Point","coordinates":[24.778067,42.132917]},"properties":{"line":"29","mode":"bus","color":"#0059a9","colorDark":"#00294f","band":1,"off":[3.4,1.1]}},{"type":"Feature","geometry":{"type":"Point","coordinates":[24.778067,42.132917]},"properties":{"line":"66","mode":"bus","color":"#0059a9","colorDark":"#00294f","band":1,"off":[6.8,1.1]}},{"type":"Feature","geometry":{"type":"Point","coordinates":[24.759102,42.176705]},"properties":{"name":"ИЗК Марица -Брезовко щосе","band":1,"modes":"bus","arr":["9","12","15"],"off":[0,-0.8]}},{"type":"Feature","geometry":{"type":"Point","coordinates":[24.759102,42.176705]},"properties":{"line":"9","mode":"bus","color":"#0059a9","colorDark":"#00294f","band":1,"off":[-3.4,1.1]}},{"type":"Feature","geometry":{"type":"Point","coordinates":[24.759102,42.176705]},"properties":{"line":"12","mode":"bus","color":"#0059a9","colorDark":"#00294f","band":1,"off":[0,1.1]}},{"type":"Feature","geometry":{"type":"Point","coordinates":[24.759102,42.176705]},"properties":{"line":"15","mode":"bus","color":"#0059a9","colorDark":"#00294f","band":1,"off":[3.4,1.1]}},{"type":"Feature","geometry":{"type":"Point","coordinates":[24.701786,42.127825]},"properties":{"name":"кв. Смирненски - ул. Юндола","band":1,"modes":"bus","arr":["10","12","26","29","37"],"off":[0,-0.8]}},{"type":"Feature","geometry":{"type":"Point","coordinates":[24.701786,42.127825]},"properties":{"line":"10","mode":"bus","color":"#0059a9","colorDark":"#00294f","band":1,"off":[-6.8,1.1]}},{"type":"Feature","geometry":{"type":"Point","coordinates":[24.701786,42.127825]},"properties":{"line":"12","mode":"bus","color":"#0059a9","colorDark":"#00294f","band":1,"off":[-3.4,1.1]}},{"type":"Feature","geometry":{"type":"Point","coordinates":[24.701786,42.127825]},"properties":{"line":"26","mode":"bus","color":"#0059a9","colorDark":"#00294f","band":1,"off":[0,1.1]}},{"type":"Feature","geometry":{"type":"Point","coordinates":[24.701786,42.127825]},"properties":{"line":"29","mode":"bus","color":"#0059a9","colorDark":"#00294f","band":1,"off":[3.4,1.1]}},{"type":"Feature","geometry":{"type":"Point","coordinates":[24.701786,42.127825]},"properties":{"line":"37","mode":"bus","color":"#0059a9","colorDark":"#00294f","band":1,"off":[6.8,1.1]}},{"type":"Feature","geometry":{"type":"Point","coordinates":[24.760907,42.103101]},"properties":{"name":"след Митница Кукленско шосе","band":1,"modes":"bus","arr":["11","116"],"off":[0,-0.8]}},{"type":"Feature","geometry":{"type":"Point","coordinates":[24.760907,42.103101]},"properties":{"line":"11","mode":"bus","color":"#0059a9","colorDark":"#00294f","band":1,"off":[-1.7,1.1]}},{"type":"Feature","geometry":{"type":"Point","coordinates":[24.760907,42.103101]},"properties":{"line":"116","mode":"bus","color":"#0059a9","colorDark":"#00294f","band":1,"off":[1.7,1.1]}},{"type":"Feature","geometry":{"type":"Point","coordinates":[24.719971,42.16914]},"properties":{"name":"След бензиностанция Еко","band":1,"modes":"bus","arr":["11"],"off":[0,-0.8]}},{"type":"Feature","geometry":{"type":"Point","coordinates":[24.719971,42.16914]},"properties":{"line":"11","mode":"bus","color":"#0059a9","colorDark":"#00294f","band":1,"off":[0,1.1]}},{"type":"Feature","geometry":{"type":"Point","coordinates":[24.72042,42.125211]},"properties":{"name":"кв. Южен - бул. Ал. Стамболийски","band":1,"modes":"bus","arr":["16","36"],"off":[0,-0.8]}},{"type":"Feature","geometry":{"type":"Point","coordinates":[24.72042,42.125211]},"properties":{"line":"16","mode":"bus","color":"#0059a9","colorDark":"#00294f","band":1,"off":[-1.7,1.1]}},{"type":"Feature","geometry":{"type":"Point","coordinates":[24.72042,42.125211]},"properties":{"line":"36","mode":"bus","color":"#0059a9","colorDark":"#00294f","band":1,"off":[1.7,1.1]}},{"type":"Feature","geometry":{"type":"Point","coordinates":[24.759831,42.162102]},"properties":{"name":"кв. Гагарин - ул. Милеви скали","band":1,"modes":"bus","arr":["16"],"off":[0,-0.8]}},{"type":"Feature","geometry":{"type":"Point","coordinates":[24.759831,42.162102]},"properties":{"line":"16","mode":"bus","color":"#0059a9","colorDark":"#00294f","band":1,"off":[0,1.1]}},{"type":"Feature","geometry":{"type":"Point","coordinates":[24.788993,42.120913]},"properties":{"name":"срещу пожарната","band":1,"modes":"bus","arr":["18"],"off":[0,-0.8]}},{"type":"Feature","geometry":{"type":"Point","coordinates":[24.788993,42.120913]},"properties":{"name":"Недялка Шилева преди пожарната","band":1,"modes":"bus","arr":["18"],"off":[0,-1.9]}},{"type":"Feature","geometry":{"type":"Point","coordinates":[24.788993,42.120913]},"properties":{"line":"18","mode":"bus","color":"#0059a9","colorDark":"#00294f","band":1,"off":[0,1.1]}},{"type":"Feature","geometry":{"type":"Point","coordinates":[24.697508,42.1557]},"properties":{"name":"Хангарите","band":1,"modes":"bus","arr":["18"],"off":[0,-0.8]}},{"type":"Feature","geometry":{"type":"Point","coordinates":[24.697508,42.1557]},"properties":{"line":"18","mode":"bus","color":"#0059a9","colorDark":"#00294f","band":1,"off":[0,1.1]}},{"type":"Feature","geometry":{"type":"Point","coordinates":[24.786174,42.127591]},"properties":{"name":"Колелото на Цар Симеон","band":1,"modes":"bus","arr":["18","44","99"],"off":[0,-0.8]}},{"type":"Feature","geometry":{"type":"Point","coordinates":[24.786174,42.127591]},"properties":{"line":"18","mode":"bus","color":"#0059a9","colorDark":"#00294f","band":1,"off":[-3.4,1.1]}},{"type":"Feature","geometry":{"type":"Point","coordinates":[24.786174,42.127591]},"properties":{"line":"44","mode":"bus","color":"#0059a9","colorDark":"#00294f","band":1,"off":[0,1.1]}},{"type":"Feature","geometry":{"type":"Point","coordinates":[24.786174,42.127591]},"properties":{"line":"99","mode":"bus","color":"#0059a9","colorDark":"#00294f","band":1,"off":[3.4,1.1]}},{"type":"Feature","geometry":{"type":"Point","coordinates":[24.745707,42.16795]},"properties":{"name":"ТК Марица","band":1,"modes":"bus","arr":["21","99"],"off":[0,-0.8]}},{"type":"Feature","geometry":{"type":"Point","coordinates":[24.745707,42.16795]},"properties":{"line":"21","mode":"bus","color":"#0059a9","colorDark":"#00294f","band":1,"off":[-1.7,1.1]}},{"type":"Feature","geometry":{"type":"Point","coordinates":[24.745707,42.16795]},"properties":{"line":"99","mode":"bus","color":"#0059a9","colorDark":"#00294f","band":1,"off":[1.7,1.1]}},{"type":"Feature","geometry":{"type":"Point","coordinates":[24.796781,42.147404]},"properties":{"name":"Кръговото на ДК","band":1,"modes":"bus","arr":["22"],"off":[0,-0.8]}},{"type":"Feature","geometry":{"type":"Point","coordinates":[24.796781,42.147404]},"properties":{"line":"22","mode":"bus","color":"#0059a9","colorDark":"#00294f","band":1,"off":[0,1.1]}},{"type":"Feature","geometry":{"type":"Point","coordinates":[24.723464,42.1506]},"properties":{"name":"Обръщалото на ул. Младежка","band":1,"modes":"bus","arr":["22"],"off":[0,-0.8]}},{"type":"Feature","geometry":{"type":"Point","coordinates":[24.723464,42.1506]},"properties":{"name":"Младежка","band":1,"modes":"bus","arr":["22"],"off":[0,-3]}},{"type":"Feature","geometry":{"type":"Point","coordinates":[24.723464,42.1506]},"properties":{"line":"22","mode":"bus","color":"#0059a9","colorDark":"#00294f","band":1,"off":[0,1.1]}},{"type":"Feature","geometry":{"type":"Point","coordinates":[24.805279,42.141712]},"properties":{"name":"Изпитателен център","band":1,"modes":"bus","arr":["22"],"off":[0,-0.8]}},{"type":"Feature","geometry":{"type":"Point","coordinates":[24.805279,42.141712]},"properties":{"line":"22","mode":"bus","color":"#0059a9","colorDark":"#00294f","band":1,"off":[0,1.1]}},{"type":"Feature","geometry":{"type":"Point","coordinates":[24.809067,42.138406]},"properties":{"name":"Пречисвателна станция - Ягод.шосе","band":1,"modes":"bus","arr":["22"],"off":[0,-0.8]}},{"type":"Feature","geometry":{"type":"Point","coordinates":[24.809067,42.138406]},"properties":{"line":"22","mode":"bus","color":"#0059a9","colorDark":"#00294f","band":1,"off":[0,1.1]}},{"type":"Feature","geometry":{"type":"Point","coordinates":[24.7802,42.116165]},"properties":{"name":"завод Устрем - Асеновгр. шосе","band":1,"modes":"bus","arr":["24","44"],"off":[0,-0.8]}},{"type":"Feature","geometry":{"type":"Point","coordinates":[24.7802,42.116165]},"properties":{"line":"24","mode":"bus","color":"#0059a9","colorDark":"#00294f","band":1,"off":[-1.7,1.1]}},{"type":"Feature","geometry":{"type":"Point","coordinates":[24.7802,42.116165]},"properties":{"line":"44","mode":"bus","color":"#0059a9","colorDark":"#00294f","band":1,"off":[1.7,1.1]}},{"type":"Feature","geometry":{"type":"Point","coordinates":[24.769722,42.156779]},"properties":{"name":"ЗХА Родина","band":1,"modes":"bus","arr":["27"],"off":[0,-0.8]}},{"type":"Feature","geometry":{"type":"Point","coordinates":[24.769722,42.156779]},"properties":{"line":"27","mode":"bus","color":"#0059a9","colorDark":"#00294f","band":1,"off":[0,1.1]}},{"type":"Feature","geometry":{"type":"Point","coordinates":[24.756069,42.121039]},"properties":{"name":"ЕАЗ - Цар Борис ІІІ","band":1,"modes":"bus","arr":["37"],"off":[0,-0.8]}},{"type":"Feature","geometry":{"type":"Point","coordinates":[24.756069,42.121039]},"properties":{"line":"37","mode":"bus","color":"#0059a9","colorDark":"#00294f","band":1,"off":[0,1.1]}},{"type":"Feature","geometry":{"type":"Point","coordinates":[24.73899,42.170821]},"properties":{"name":"Стъкларски завод - пред портала","band":1,"modes":"bus","arr":["93"],"off":[0,-0.8]}},{"type":"Feature","geometry":{"type":"Point","coordinates":[24.73899,42.170821]},"properties":{"line":"93","mode":"bus","color":"#0059a9","colorDark":"#00294f","band":1,"off":[0,1.1]}},{"type":"Feature","geometry":{"type":"Point","coordinates":[24.775187,42.124582]},"properties":{"name":"Автоелектроника","band":1,"modes":"bus","arr":["93"],"off":[0,-0.8]}},{"type":"Feature","geometry":{"type":"Point","coordinates":[24.775187,42.124582]},"properties":{"line":"93","mode":"bus","color":"#0059a9","colorDark":"#00294f","band":1,"off":[0,1.1]}},{"type":"Feature","geometry":{"type":"Point","coordinates":[24.714779,42.172828]},"properties":{"name":"срещу Димитър Маджаров 2 ЕООД","band":1,"modes":"bus","arr":["93"],"off":[0,-0.8]}},{"type":"Feature","geometry":{"type":"Point","coordinates":[24.714779,42.172828]},"properties":{"name":"пред Димитър Маджаров 2 ЕООД","band":1,"modes":"bus","arr":["93"],"off":[0,-3]}},{"type":"Feature","geometry":{"type":"Point","coordinates":[24.714779,42.172828]},"properties":{"line":"93","mode":"bus","color":"#0059a9","colorDark":"#00294f","band":1,"off":[0,1.1]}},{"type":"Feature","geometry":{"type":"Point","coordinates":[24.796066,42.128195]},"properties":{"name":"2-ра Авто колона","band":1,"modes":"bus","arr":["99"],"off":[0,-0.8]}},{"type":"Feature","geometry":{"type":"Point","coordinates":[24.796066,42.128195]},"properties":{"line":"99","mode":"bus","color":"#0059a9","colorDark":"#00294f","band":1,"off":[0,1.1]}},{"type":"Feature","geometry":{"type":"Point","coordinates":[24.719267,42.163502]},"properties":{"name":"КАТ","band":1,"modes":"bus","arr":["113"],"off":[0,-0.8]}},{"type":"Feature","geometry":{"type":"Point","coordinates":[24.719267,42.163502]},"properties":{"line":"113","mode":"bus","color":"#0059a9","colorDark":"#00294f","band":1,"off":[0,1.1]}},{"type":"Feature","geometry":{"type":"Point","coordinates":[24.786199,42.160701]},"properties":{"name":"кв. Изгрев","band":1,"modes":"bus","arr":["116"],"off":[0,-0.8]}},{"type":"Feature","geometry":{"type":"Point","coordinates":[24.786199,42.160701]},"properties":{"line":"116","mode":"bus","color":"#0059a9","colorDark":"#00294f","band":1,"off":[0,1.1]}},{"type":"Feature","geometry":{"type":"Point","coordinates":[24.702533,42.100464]},"properties":{"name":"кв. Коматево - последна спирка","band":2,"modes":"bus","arr":["1","20","27"],"off":[0,-0.8]}},{"type":"Feature","geometry":{"type":"Point","coordinates":[24.702533,42.100464]},"properties":{"line":"1","mode":"bus","color":"#0059a9","colorDark":"#00294f","band":2,"off":[-3.4,1.1]}},{"type":"Feature","geometry":{"type":"Point","coordinates":[24.702533,42.100464]},"properties":{"line":"20","mode":"bus","color":"#0059a9","colorDark":"#00294f","band":2,"off":[0,1.1]}},{"type":"Feature","geometry":{"type":"Point","coordinates":[24.702533,42.100464]},"properties":{"line":"27","mode":"bus","color":"#0059a9","colorDark":"#00294f","band":2,"off":[3.4,1.1]}},{"type":"Feature","geometry":{"type":"Point","coordinates":[24.737556,42.185987]},"properties":{"name":"АПК-Карловско шосе","band":2,"modes":"bus","arr":["1","25"],"off":[0,-0.8]}},{"type":"Feature","geometry":{"type":"Point","coordinates":[24.737556,42.185987]},"properties":{"line":"1","mode":"bus","color":"#0059a9","colorDark":"#00294f","band":2,"off":[-1.7,1.1]}},{"type":"Feature","geometry":{"type":"Point","coordinates":[24.737556,42.185987]},"properties":{"line":"25","mode":"bus","color":"#0059a9","colorDark":"#00294f","band":2,"off":[1.7,1.1]}},{"type":"Feature","geometry":{"type":"Point","coordinates":[24.712857,42.156879]},"properties":{"name":"ПУ - бул. България","band":2,"modes":"bus","arr":["4","18","20","44","222"],"off":[0,-0.8]}},{"type":"Feature","geometry":{"type":"Point","coordinates":[24.712857,42.156879]},"properties":{"line":"4","mode":"bus","color":"#0059a9","colorDark":"#00294f","band":2,"off":[-6.8,1.1]}},{"type":"Feature","geometry":{"type":"Point","coordinates":[24.712857,42.156879]},"properties":{"line":"18","mode":"bus","color":"#0059a9","colorDark":"#00294f","band":2,"off":[-3.4,1.1]}},{"type":"Feature","geometry":{"type":"Point","coordinates":[24.712857,42.156879]},"properties":{"line":"20","mode":"bus","color":"#0059a9","colorDark":"#00294f","band":2,"off":[0,1.1]}},{"type":"Feature","geometry":{"type":"Point","coordinates":[24.712857,42.156879]},"properties":{"line":"44","mode":"bus","color":"#0059a9","colorDark":"#00294f","band":2,"off":[3.4,1.1]}},{"type":"Feature","geometry":{"type":"Point","coordinates":[24.712857,42.156879]},"properties":{"line":"222","mode":"bus","color":"#0059a9","colorDark":"#00294f","band":2,"off":[6.8,1.1]}},{"type":"Feature","geometry":{"type":"Point","coordinates":[24.798919,42.144034]},"properties":{"name":"кв. Тракия (а-13)","band":2,"modes":"bus","arr":["4","10","17"],"off":[0,-0.8]}},{"type":"Feature","geometry":{"type":"Point","coordinates":[24.798919,42.144034]},"properties":{"line":"4","mode":"bus","color":"#0059a9","colorDark":"#00294f","band":2,"off":[-3.4,1.1]}},{"type":"Feature","geometry":{"type":"Point","coordinates":[24.798919,42.144034]},"properties":{"line":"10","mode":"bus","color":"#0059a9","colorDark":"#00294f","band":2,"off":[0,1.1]}},{"type":"Feature","geometry":{"type":"Point","coordinates":[24.798919,42.144034]},"properties":{"line":"17","mode":"bus","color":"#0059a9","colorDark":"#00294f","band":2,"off":[3.4,1.1]}},{"type":"Feature","geometry":{"type":"Point","coordinates":[24.677273,42.120085]},"properties":{"name":"Прослав - последна","band":2,"modes":"bus","arr":["6","15","24","66","222"],"off":[0,-0.8]}},{"type":"Feature","geometry":{"type":"Point","coordinates":[24.677273,42.120085]},"properties":{"line":"6","mode":"bus","color":"#0059a9","colorDark":"#00294f","band":2,"off":[-6.8,1.1]}},{"type":"Feature","geometry":{"type":"Point","coordinates":[24.677273,42.120085]},"properties":{"line":"15","mode":"bus","color":"#0059a9","colorDark":"#00294f","band":2,"off":[-3.4,1.1]}},{"type":"Feature","geometry":{"type":"Point","coordinates":[24.677273,42.120085]},"properties":{"line":"24","mode":"bus","color":"#0059a9","colorDark":"#00294f","band":2,"off":[0,1.1]}},{"type":"Feature","geometry":{"type":"Point","coordinates":[24.677273,42.120085]},"properties":{"line":"66","mode":"bus","color":"#0059a9","colorDark":"#00294f","band":2,"off":[3.4,1.1]}},{"type":"Feature","geometry":{"type":"Point","coordinates":[24.677273,42.120085]},"properties":{"line":"222","mode":"bus","color":"#0059a9","colorDark":"#00294f","band":2,"off":[6.8,1.1]}},{"type":"Feature","geometry":{"type":"Point","coordinates":[24.689306,42.127648]},"properties":{"name":"срещу ОДЗ Боряна","band":2,"modes":"bus","arr":["17"],"off":[0,-0.8]}},{"type":"Feature","geometry":{"type":"Point","coordinates":[24.689306,42.127648]},"properties":{"line":"17","mode":"bus","color":"#0059a9","colorDark":"#00294f","band":2,"off":[0,1.1]}},{"type":"Feature","geometry":{"type":"Point","coordinates":[24.781387,42.159426]},"properties":{"name":"кв. Изгрев - обръщало ул. Край","band":2,"modes":"bus","arr":["6","26","36"],"off":[0,-0.8]}},{"type":"Feature","geometry":{"type":"Point","coordinates":[24.781387,42.159426]},"properties":{"line":"6","mode":"bus","color":"#0059a9","colorDark":"#00294f","band":2,"off":[-3.4,1.1]}},{"type":"Feature","geometry":{"type":"Point","coordinates":[24.781387,42.159426]},"properties":{"line":"26","mode":"bus","color":"#0059a9","colorDark":"#00294f","band":2,"off":[0,1.1]}},{"type":"Feature","geometry":{"type":"Point","coordinates":[24.781387,42.159426]},"properties":{"line":"36","mode":"bus","color":"#0059a9","colorDark":"#00294f","band":2,"off":[3.4,1.1]}},{"type":"Feature","geometry":{"type":"Point","coordinates":[24.775481,42.166594]},"properties":{"name":"Рогошки гробища -последна спирка","band":2,"modes":"bus","arr":["7"],"off":[0,-0.8]}},{"type":"Feature","geometry":{"type":"Point","coordinates":[24.775481,42.166594]},"properties":{"line":"7","mode":"bus","color":"#0059a9","colorDark":"#00294f","band":2,"off":[0,1.1]}},{"type":"Feature","geometry":{"type":"Point","coordinates":[24.728415,42.106091]},"properties":{"name":"Овощарски институт","band":2,"modes":"bus","arr":["7","113"],"off":[0,-0.8]}},{"type":"Feature","geometry":{"type":"Point","coordinates":[24.728415,42.106091]},"properties":{"line":"7","mode":"bus","color":"#0059a9","colorDark":"#00294f","band":2,"off":[-1.7,1.1]}},{"type":"Feature","geometry":{"type":"Point","coordinates":[24.728415,42.106091]},"properties":{"line":"113","mode":"bus","color":"#0059a9","colorDark":"#00294f","band":2,"off":[1.7,1.1]}},{"type":"Feature","geometry":{"type":"Point","coordinates":[24.778067,42.132917]},"properties":{"name":"жк Тракия (а-12)","band":2,"modes":"bus","arr":["9","21","25","29","66"],"off":[0,-0.8]}},{"type":"Feature","geometry":{"type":"Point","coordinates":[24.778067,42.132917]},"properties":{"line":"9","mode":"bus","color":"#0059a9","colorDark":"#00294f","band":2,"off":[-6.8,1.1]}},{"type":"Feature","geometry":{"type":"Point","coordinates":[24.778067,42.132917]},"properties":{"line":"21","mode":"bus","color":"#0059a9","colorDark":"#00294f","band":2,"off":[-3.4,1.1]}},{"type":"Feature","geometry":{"type":"Point","coordinates":[24.778067,42.132917]},"properties":{"line":"25","mode":"bus","color":"#0059a9","colorDark":"#00294f","band":2,"off":[0,1.1]}},{"type":"Feature","geometry":{"type":"Point","coordinates":[24.778067,42.132917]},"properties":{"line":"29","mode":"bus","color":"#0059a9","colorDark":"#00294f","band":2,"off":[3.4,1.1]}},{"type":"Feature","geometry":{"type":"Point","coordinates":[24.778067,42.132917]},"properties":{"line":"66","mode":"bus","color":"#0059a9","colorDark":"#00294f","band":2,"off":[6.8,1.1]}},{"type":"Feature","geometry":{"type":"Point","coordinates":[24.759102,42.176705]},"properties":{"name":"ИЗК Марица -Брезовко щосе","band":2,"modes":"bus","arr":["9","12","15"],"off":[0,-0.8]}},{"type":"Feature","geometry":{"type":"Point","coordinates":[24.759102,42.176705]},"properties":{"line":"9","mode":"bus","color":"#0059a9","colorDark":"#00294f","band":2,"off":[-3.4,1.1]}},{"type":"Feature","geometry":{"type":"Point","coordinates":[24.759102,42.176705]},"properties":{"line":"12","mode":"bus","color":"#0059a9","colorDark":"#00294f","band":2,"off":[0,1.1]}},{"type":"Feature","geometry":{"type":"Point","coordinates":[24.759102,42.176705]},"properties":{"line":"15","mode":"bus","color":"#0059a9","colorDark":"#00294f","band":2,"off":[3.4,1.1]}},{"type":"Feature","geometry":{"type":"Point","coordinates":[24.701786,42.127825]},"properties":{"name":"кв. Смирненски - ул. Юндола","band":2,"modes":"bus","arr":["10","12","26","29","37"],"off":[0,-0.8]}},{"type":"Feature","geometry":{"type":"Point","coordinates":[24.701786,42.127825]},"properties":{"line":"10","mode":"bus","color":"#0059a9","colorDark":"#00294f","band":2,"off":[-6.8,1.1]}},{"type":"Feature","geometry":{"type":"Point","coordinates":[24.701786,42.127825]},"properties":{"line":"12","mode":"bus","color":"#0059a9","colorDark":"#00294f","band":2,"off":[-3.4,1.1]}},{"type":"Feature","geometry":{"type":"Point","coordinates":[24.701786,42.127825]},"properties":{"line":"26","mode":"bus","color":"#0059a9","colorDark":"#00294f","band":2,"off":[0,1.1]}},{"type":"Feature","geometry":{"type":"Point","coordinates":[24.701786,42.127825]},"properties":{"line":"29","mode":"bus","color":"#0059a9","colorDark":"#00294f","band":2,"off":[3.4,1.1]}},{"type":"Feature","geometry":{"type":"Point","coordinates":[24.701786,42.127825]},"properties":{"line":"37","mode":"bus","color":"#0059a9","colorDark":"#00294f","band":2,"off":[6.8,1.1]}},{"type":"Feature","geometry":{"type":"Point","coordinates":[24.760907,42.103101]},"properties":{"name":"след Митница Кукленско шосе","band":2,"modes":"bus","arr":["11","116"],"off":[0,-0.8]}},{"type":"Feature","geometry":{"type":"Point","coordinates":[24.760907,42.103101]},"properties":{"line":"11","mode":"bus","color":"#0059a9","colorDark":"#00294f","band":2,"off":[-1.7,1.1]}},{"type":"Feature","geometry":{"type":"Point","coordinates":[24.760907,42.103101]},"properties":{"line":"116","mode":"bus","color":"#0059a9","colorDark":"#00294f","band":2,"off":[1.7,1.1]}},{"type":"Feature","geometry":{"type":"Point","coordinates":[24.719971,42.16914]},"properties":{"name":"След бензиностанция Еко","band":2,"modes":"bus","arr":["11"],"off":[0,-0.8]}},{"type":"Feature","geometry":{"type":"Point","coordinates":[24.719971,42.16914]},"properties":{"line":"11","mode":"bus","color":"#0059a9","colorDark":"#00294f","band":2,"off":[0,1.1]}},{"type":"Feature","geometry":{"type":"Point","coordinates":[24.72042,42.125211]},"properties":{"name":"кв. Южен - бул. Ал. Стамболийски","band":2,"modes":"bus","arr":["16","36"],"off":[0,-0.8]}},{"type":"Feature","geometry":{"type":"Point","coordinates":[24.72042,42.125211]},"properties":{"line":"16","mode":"bus","color":"#0059a9","colorDark":"#00294f","band":2,"off":[-1.7,1.1]}},{"type":"Feature","geometry":{"type":"Point","coordinates":[24.72042,42.125211]},"properties":{"line":"36","mode":"bus","color":"#0059a9","colorDark":"#00294f","band":2,"off":[1.7,1.1]}},{"type":"Feature","geometry":{"type":"Point","coordinates":[24.759831,42.162102]},"properties":{"name":"кв. Гагарин - ул. Милеви скали","band":2,"modes":"bus","arr":["16"],"off":[0,-0.8]}},{"type":"Feature","geometry":{"type":"Point","coordinates":[24.759831,42.162102]},"properties":{"line":"16","mode":"bus","color":"#0059a9","colorDark":"#00294f","band":2,"off":[0,1.1]}},{"type":"Feature","geometry":{"type":"Point","coordinates":[24.788993,42.120913]},"properties":{"name":"срещу пожарната","band":2,"modes":"bus","arr":["18"],"off":[0,-0.8]}},{"type":"Feature","geometry":{"type":"Point","coordinates":[24.788993,42.120913]},"properties":{"name":"Недялка Шилева преди пожарната","band":2,"modes":"bus","arr":["18"],"off":[0,-1.9]}},{"type":"Feature","geometry":{"type":"Point","coordinates":[24.788993,42.120913]},"properties":{"line":"18","mode":"bus","color":"#0059a9","colorDark":"#00294f","band":2,"off":[0,1.1]}},{"type":"Feature","geometry":{"type":"Point","coordinates":[24.697508,42.1557]},"properties":{"name":"Хангарите","band":2,"modes":"bus","arr":["18"],"off":[0,-0.8]}},{"type":"Feature","geometry":{"type":"Point","coordinates":[24.697508,42.1557]},"properties":{"line":"18","mode":"bus","color":"#0059a9","colorDark":"#00294f","band":2,"off":[0,1.1]}},{"type":"Feature","geometry":{"type":"Point","coordinates":[24.786174,42.127591]},"properties":{"name":"Колелото на Цар Симеон","band":2,"modes":"bus","arr":["18","44","99"],"off":[0,-0.8]}},{"type":"Feature","geometry":{"type":"Point","coordinates":[24.786174,42.127591]},"properties":{"line":"18","mode":"bus","color":"#0059a9","colorDark":"#00294f","band":2,"off":[-3.4,1.1]}},{"type":"Feature","geometry":{"type":"Point","coordinates":[24.786174,42.127591]},"properties":{"line":"44","mode":"bus","color":"#0059a9","colorDark":"#00294f","band":2,"off":[0,1.1]}},{"type":"Feature","geometry":{"type":"Point","coordinates":[24.786174,42.127591]},"properties":{"line":"99","mode":"bus","color":"#0059a9","colorDark":"#00294f","band":2,"off":[3.4,1.1]}},{"type":"Feature","geometry":{"type":"Point","coordinates":[24.745707,42.16795]},"properties":{"name":"ТК Марица","band":2,"modes":"bus","arr":["21","99"],"off":[0,-0.8]}},{"type":"Feature","geometry":{"type":"Point","coordinates":[24.745707,42.16795]},"properties":{"line":"21","mode":"bus","color":"#0059a9","colorDark":"#00294f","band":2,"off":[-1.7,1.1]}},{"type":"Feature","geometry":{"type":"Point","coordinates":[24.745707,42.16795]},"properties":{"line":"99","mode":"bus","color":"#0059a9","colorDark":"#00294f","band":2,"off":[1.7,1.1]}},{"type":"Feature","geometry":{"type":"Point","coordinates":[24.796781,42.147404]},"properties":{"name":"Кръговото на ДК","band":2,"modes":"bus","arr":["22"],"off":[0,-0.8]}},{"type":"Feature","geometry":{"type":"Point","coordinates":[24.796781,42.147404]},"properties":{"line":"22","mode":"bus","color":"#0059a9","colorDark":"#00294f","band":2,"off":[0,1.1]}},{"type":"Feature","geometry":{"type":"Point","coordinates":[24.723464,42.1506]},"properties":{"name":"Обръщалото на ул. Младежка","band":2,"modes":"bus","arr":["22"],"off":[0,-0.8]}},{"type":"Feature","geometry":{"type":"Point","coordinates":[24.723464,42.1506]},"properties":{"name":"Младежка","band":2,"modes":"bus","arr":["22"],"off":[0,-3]}},{"type":"Feature","geometry":{"type":"Point","coordinates":[24.723464,42.1506]},"properties":{"line":"22","mode":"bus","color":"#0059a9","colorDark":"#00294f","band":2,"off":[0,1.1]}},{"type":"Feature","geometry":{"type":"Point","coordinates":[24.805279,42.141712]},"properties":{"name":"Изпитателен център","band":2,"modes":"bus","arr":["22"],"off":[0,-0.8]}},{"type":"Feature","geometry":{"type":"Point","coordinates":[24.805279,42.141712]},"properties":{"line":"22","mode":"bus","color":"#0059a9","colorDark":"#00294f","band":2,"off":[0,1.1]}},{"type":"Feature","geometry":{"type":"Point","coordinates":[24.809067,42.138406]},"properties":{"name":"Пречисвателна станция - Ягод.шосе","band":2,"modes":"bus","arr":["22"],"off":[0,-0.8]}},{"type":"Feature","geometry":{"type":"Point","coordinates":[24.809067,42.138406]},"properties":{"line":"22","mode":"bus","color":"#0059a9","colorDark":"#00294f","band":2,"off":[0,1.1]}},{"type":"Feature","geometry":{"type":"Point","coordinates":[24.7802,42.116165]},"properties":{"name":"завод Устрем - Асеновгр. шосе","band":2,"modes":"bus","arr":["24","44"],"off":[0,-0.8]}},{"type":"Feature","geometry":{"type":"Point","coordinates":[24.7802,42.116165]},"properties":{"line":"24","mode":"bus","color":"#0059a9","colorDark":"#00294f","band":2,"off":[-1.7,1.1]}},{"type":"Feature","geometry":{"type":"Point","coordinates":[24.7802,42.116165]},"properties":{"line":"44","mode":"bus","color":"#0059a9","colorDark":"#00294f","band":2,"off":[1.7,1.1]}},{"type":"Feature","geometry":{"type":"Point","coordinates":[24.769722,42.156779]},"properties":{"name":"ЗХА Родина","band":2,"modes":"bus","arr":["27"],"off":[0,-0.8]}},{"type":"Feature","geometry":{"type":"Point","coordinates":[24.769722,42.156779]},"properties":{"line":"27","mode":"bus","color":"#0059a9","colorDark":"#00294f","band":2,"off":[0,1.1]}},{"type":"Feature","geometry":{"type":"Point","coordinates":[24.756069,42.121039]},"properties":{"name":"ЕАЗ - Цар Борис ІІІ","band":2,"modes":"bus","arr":["37"],"off":[0,-0.8]}},{"type":"Feature","geometry":{"type":"Point","coordinates":[24.756069,42.121039]},"properties":{"line":"37","mode":"bus","color":"#0059a9","colorDark":"#00294f","band":2,"off":[0,1.1]}},{"type":"Feature","geometry":{"type":"Point","coordinates":[24.73899,42.170821]},"properties":{"name":"Стъкларски завод - пред портала","band":2,"modes":"bus","arr":["93"],"off":[0,-0.8]}},{"type":"Feature","geometry":{"type":"Point","coordinates":[24.73899,42.170821]},"properties":{"line":"93","mode":"bus","color":"#0059a9","colorDark":"#00294f","band":2,"off":[0,1.1]}},{"type":"Feature","geometry":{"type":"Point","coordinates":[24.775187,42.124582]},"properties":{"name":"Автоелектроника","band":2,"modes":"bus","arr":["93"],"off":[0,-0.8]}},{"type":"Feature","geometry":{"type":"Point","coordinates":[24.775187,42.124582]},"properties":{"line":"93","mode":"bus","color":"#0059a9","colorDark":"#00294f","band":2,"off":[0,1.1]}},{"type":"Feature","geometry":{"type":"Point","coordinates":[24.714779,42.172828]},"properties":{"name":"срещу Димитър Маджаров 2 ЕООД","band":2,"modes":"bus","arr":["93"],"off":[0,-0.8]}},{"type":"Feature","geometry":{"type":"Point","coordinates":[24.714779,42.172828]},"properties":{"name":"пред Димитър Маджаров 2 ЕООД","band":2,"modes":"bus","arr":["93"],"off":[0,-3]}},{"type":"Feature","geometry":{"type":"Point","coordinates":[24.714779,42.172828]},"properties":{"line":"93","mode":"bus","color":"#0059a9","colorDark":"#00294f","band":2,"off":[0,1.1]}},{"type":"Feature","geometry":{"type":"Point","coordinates":[24.796066,42.128195]},"properties":{"name":"2-ра Авто колона","band":2,"modes":"bus","arr":["99"],"off":[0,-0.8]}},{"type":"Feature","geometry":{"type":"Point","coordinates":[24.796066,42.128195]},"properties":{"line":"99","mode":"bus","color":"#0059a9","colorDark":"#00294f","band":2,"off":[0,1.1]}},{"type":"Feature","geometry":{"type":"Point","coordinates":[24.719267,42.163502]},"properties":{"name":"КАТ","band":2,"modes":"bus","arr":["113"],"off":[0,-0.8]}},{"type":"Feature","geometry":{"type":"Point","coordinates":[24.719267,42.163502]},"properties":{"line":"113","mode":"bus","color":"#0059a9","colorDark":"#00294f","band":2,"off":[0,1.1]}},{"type":"Feature","geometry":{"type":"Point","coordinates":[24.786199,42.160701]},"properties":{"name":"кв. Изгрев","band":2,"modes":"bus","arr":["116"],"off":[0,-0.8]}},{"type":"Feature","geometry":{"type":"Point","coordinates":[24.786199,42.160701]},"properties":{"line":"116","mode":"bus","color":"#0059a9","colorDark":"#00294f","band":2,"off":[0,1.1]}},{"type":"Feature","geometry":{"type":"Point","coordinates":[24.702533,42.100464]},"properties":{"name":"кв. Коматево - последна спирка","band":3,"modes":"bus","arr":["1","20","27"],"off":[0,-0.8]}},{"type":"Feature","geometry":{"type":"Point","coordinates":[24.702533,42.100464]},"properties":{"line":"1","mode":"bus","color":"#0059a9","colorDark":"#00294f","band":3,"off":[-3.4,1.1]}},{"type":"Feature","geometry":{"type":"Point","coordinates":[24.702533,42.100464]},"properties":{"line":"20","mode":"bus","color":"#0059a9","colorDark":"#00294f","band":3,"off":[0,1.1]}},{"type":"Feature","geometry":{"type":"Point","coordinates":[24.702533,42.100464]},"properties":{"line":"27","mode":"bus","color":"#0059a9","colorDark":"#00294f","band":3,"off":[3.4,1.1]}},{"type":"Feature","geometry":{"type":"Point","coordinates":[24.737556,42.185987]},"properties":{"name":"АПК-Карловско шосе","band":3,"modes":"bus","arr":["1","25"],"off":[0,-0.8]}},{"type":"Feature","geometry":{"type":"Point","coordinates":[24.737556,42.185987]},"properties":{"line":"1","mode":"bus","color":"#0059a9","colorDark":"#00294f","band":3,"off":[-1.7,1.1]}},{"type":"Feature","geometry":{"type":"Point","coordinates":[24.737556,42.185987]},"properties":{"line":"25","mode":"bus","color":"#0059a9","colorDark":"#00294f","band":3,"off":[1.7,1.1]}},{"type":"Feature","geometry":{"type":"Point","coordinates":[24.712857,42.156879]},"properties":{"name":"ПУ - бул. България","band":3,"modes":"bus","arr":["4","18","20","44","222"],"off":[0,-0.8]}},{"type":"Feature","geometry":{"type":"Point","coordinates":[24.712857,42.156879]},"properties":{"line":"4","mode":"bus","color":"#0059a9","colorDark":"#00294f","band":3,"off":[-6.8,1.1]}},{"type":"Feature","geometry":{"type":"Point","coordinates":[24.712857,42.156879]},"properties":{"line":"18","mode":"bus","color":"#0059a9","colorDark":"#00294f","band":3,"off":[-3.4,1.1]}},{"type":"Feature","geometry":{"type":"Point","coordinates":[24.712857,42.156879]},"properties":{"line":"20","mode":"bus","color":"#0059a9","colorDark":"#00294f","band":3,"off":[0,1.1]}},{"type":"Feature","geometry":{"type":"Point","coordinates":[24.712857,42.156879]},"properties":{"line":"44","mode":"bus","color":"#0059a9","colorDark":"#00294f","band":3,"off":[3.4,1.1]}},{"type":"Feature","geometry":{"type":"Point","coordinates":[24.712857,42.156879]},"properties":{"line":"222","mode":"bus","color":"#0059a9","colorDark":"#00294f","band":3,"off":[6.8,1.1]}},{"type":"Feature","geometry":{"type":"Point","coordinates":[24.798919,42.144034]},"properties":{"name":"кв. Тракия (а-13)","band":3,"modes":"bus","arr":["4","10","17"],"off":[0,-0.8]}},{"type":"Feature","geometry":{"type":"Point","coordinates":[24.798919,42.144034]},"properties":{"line":"4","mode":"bus","color":"#0059a9","colorDark":"#00294f","band":3,"off":[-3.4,1.1]}},{"type":"Feature","geometry":{"type":"Point","coordinates":[24.798919,42.144034]},"properties":{"line":"10","mode":"bus","color":"#0059a9","colorDark":"#00294f","band":3,"off":[0,1.1]}},{"type":"Feature","geometry":{"type":"Point","coordinates":[24.798919,42.144034]},"properties":{"line":"17","mode":"bus","color":"#0059a9","colorDark":"#00294f","band":3,"off":[3.4,1.1]}},{"type":"Feature","geometry":{"type":"Point","coordinates":[24.677273,42.120085]},"properties":{"name":"Прослав - последна","band":3,"modes":"bus","arr":["6","15","24","66","222"],"off":[0,-0.8]}},{"type":"Feature","geometry":{"type":"Point","coordinates":[24.677273,42.120085]},"properties":{"line":"6","mode":"bus","color":"#0059a9","colorDark":"#00294f","band":3,"off":[-6.8,1.1]}},{"type":"Feature","geometry":{"type":"Point","coordinates":[24.677273,42.120085]},"properties":{"line":"15","mode":"bus","color":"#0059a9","colorDark":"#00294f","band":3,"off":[-3.4,1.1]}},{"type":"Feature","geometry":{"type":"Point","coordinates":[24.677273,42.120085]},"properties":{"line":"24","mode":"bus","color":"#0059a9","colorDark":"#00294f","band":3,"off":[0,1.1]}},{"type":"Feature","geometry":{"type":"Point","coordinates":[24.677273,42.120085]},"properties":{"line":"66","mode":"bus","color":"#0059a9","colorDark":"#00294f","band":3,"off":[3.4,1.1]}},{"type":"Feature","geometry":{"type":"Point","coordinates":[24.677273,42.120085]},"properties":{"line":"222","mode":"bus","color":"#0059a9","colorDark":"#00294f","band":3,"off":[6.8,1.1]}},{"type":"Feature","geometry":{"type":"Point","coordinates":[24.689306,42.127648]},"properties":{"name":"срещу ОДЗ Боряна","band":3,"modes":"bus","arr":["17"],"off":[0,-0.8]}},{"type":"Feature","geometry":{"type":"Point","coordinates":[24.689306,42.127648]},"properties":{"line":"17","mode":"bus","color":"#0059a9","colorDark":"#00294f","band":3,"off":[0,1.1]}},{"type":"Feature","geometry":{"type":"Point","coordinates":[24.781387,42.159426]},"properties":{"name":"кв. Изгрев - обръщало ул. Край","band":3,"modes":"bus","arr":["6","26","36"],"off":[0,-0.8]}},{"type":"Feature","geometry":{"type":"Point","coordinates":[24.781387,42.159426]},"properties":{"line":"6","mode":"bus","color":"#0059a9","colorDark":"#00294f","band":3,"off":[-3.4,1.1]}},{"type":"Feature","geometry":{"type":"Point","coordinates":[24.781387,42.159426]},"properties":{"line":"26","mode":"bus","color":"#0059a9","colorDark":"#00294f","band":3,"off":[0,1.1]}},{"type":"Feature","geometry":{"type":"Point","coordinates":[24.781387,42.159426]},"properties":{"line":"36","mode":"bus","color":"#0059a9","colorDark":"#00294f","band":3,"off":[3.4,1.1]}},{"type":"Feature","geometry":{"type":"Point","coordinates":[24.775481,42.166594]},"properties":{"name":"Рогошки гробища -последна спирка","band":3,"modes":"bus","arr":["7"],"off":[0,-0.8]}},{"type":"Feature","geometry":{"type":"Point","coordinates":[24.775481,42.166594]},"properties":{"line":"7","mode":"bus","color":"#0059a9","colorDark":"#00294f","band":3,"off":[0,1.1]}},{"type":"Feature","geometry":{"type":"Point","coordinates":[24.728415,42.106091]},"properties":{"name":"Овощарски институт","band":3,"modes":"bus","arr":["7","113"],"off":[0,-0.8]}},{"type":"Feature","geometry":{"type":"Point","coordinates":[24.728415,42.106091]},"properties":{"line":"7","mode":"bus","color":"#0059a9","colorDark":"#00294f","band":3,"off":[-1.7,1.1]}},{"type":"Feature","geometry":{"type":"Point","coordinates":[24.728415,42.106091]},"properties":{"line":"113","mode":"bus","color":"#0059a9","colorDark":"#00294f","band":3,"off":[1.7,1.1]}},{"type":"Feature","geometry":{"type":"Point","coordinates":[24.778067,42.132917]},"properties":{"name":"жк Тракия (а-12)","band":3,"modes":"bus","arr":["9","21","25","29","66"],"off":[0,-0.8]}},{"type":"Feature","geometry":{"type":"Point","coordinates":[24.778067,42.132917]},"properties":{"line":"9","mode":"bus","color":"#0059a9","colorDark":"#00294f","band":3,"off":[-6.8,1.1]}},{"type":"Feature","geometry":{"type":"Point","coordinates":[24.778067,42.132917]},"properties":{"line":"21","mode":"bus","color":"#0059a9","colorDark":"#00294f","band":3,"off":[-3.4,1.1]}},{"type":"Feature","geometry":{"type":"Point","coordinates":[24.778067,42.132917]},"properties":{"line":"25","mode":"bus","color":"#0059a9","colorDark":"#00294f","band":3,"off":[0,1.1]}},{"type":"Feature","geometry":{"type":"Point","coordinates":[24.778067,42.132917]},"properties":{"line":"29","mode":"bus","color":"#0059a9","colorDark":"#00294f","band":3,"off":[3.4,1.1]}},{"type":"Feature","geometry":{"type":"Point","coordinates":[24.778067,42.132917]},"properties":{"line":"66","mode":"bus","color":"#0059a9","colorDark":"#00294f","band":3,"off":[6.8,1.1]}},{"type":"Feature","geometry":{"type":"Point","coordinates":[24.759102,42.176705]},"properties":{"name":"ИЗК Марица -Брезовко щосе","band":3,"modes":"bus","arr":["9","12","15"],"off":[0,-0.8]}},{"type":"Feature","geometry":{"type":"Point","coordinates":[24.759102,42.176705]},"properties":{"line":"9","mode":"bus","color":"#0059a9","colorDark":"#00294f","band":3,"off":[-3.4,1.1]}},{"type":"Feature","geometry":{"type":"Point","coordinates":[24.759102,42.176705]},"properties":{"line":"12","mode":"bus","color":"#0059a9","colorDark":"#00294f","band":3,"off":[0,1.1]}},{"type":"Feature","geometry":{"type":"Point","coordinates":[24.759102,42.176705]},"properties":{"line":"15","mode":"bus","color":"#0059a9","colorDark":"#00294f","band":3,"off":[3.4,1.1]}},{"type":"Feature","geometry":{"type":"Point","coordinates":[24.701786,42.127825]},"properties":{"name":"кв. Смирненски - ул. Юндола","band":3,"modes":"bus","arr":["10","12","26","29","37"],"off":[0,-0.8]}},{"type":"Feature","geometry":{"type":"Point","coordinates":[24.701786,42.127825]},"properties":{"line":"10","mode":"bus","color":"#0059a9","colorDark":"#00294f","band":3,"off":[-6.8,1.1]}},{"type":"Feature","geometry":{"type":"Point","coordinates":[24.701786,42.127825]},"properties":{"line":"12","mode":"bus","color":"#0059a9","colorDark":"#00294f","band":3,"off":[-3.4,1.1]}},{"type":"Feature","geometry":{"type":"Point","coordinates":[24.701786,42.127825]},"properties":{"line":"26","mode":"bus","color":"#0059a9","colorDark":"#00294f","band":3,"off":[0,1.1]}},{"type":"Feature","geometry":{"type":"Point","coordinates":[24.701786,42.127825]},"properties":{"line":"29","mode":"bus","color":"#0059a9","colorDark":"#00294f","band":3,"off":[3.4,1.1]}},{"type":"Feature","geometry":{"type":"Point","coordinates":[24.701786,42.127825]},"properties":{"line":"37","mode":"bus","color":"#0059a9","colorDark":"#00294f","band":3,"off":[6.8,1.1]}},{"type":"Feature","geometry":{"type":"Point","coordinates":[24.760907,42.103101]},"properties":{"name":"след Митница Кукленско шосе","band":3,"modes":"bus","arr":["11","116"],"off":[0,-0.8]}},{"type":"Feature","geometry":{"type":"Point","coordinates":[24.760907,42.103101]},"properties":{"line":"11","mode":"bus","color":"#0059a9","colorDark":"#00294f","band":3,"off":[-1.7,1.1]}},{"type":"Feature","geometry":{"type":"Point","coordinates":[24.760907,42.103101]},"properties":{"line":"116","mode":"bus","color":"#0059a9","colorDark":"#00294f","band":3,"off":[1.7,1.1]}},{"type":"Feature","geometry":{"type":"Point","coordinates":[24.719971,42.16914]},"properties":{"name":"След бензиностанция Еко","band":3,"modes":"bus","arr":["11"],"off":[0,-0.8]}},{"type":"Feature","geometry":{"type":"Point","coordinates":[24.719971,42.16914]},"properties":{"line":"11","mode":"bus","color":"#0059a9","colorDark":"#00294f","band":3,"off":[0,1.1]}},{"type":"Feature","geometry":{"type":"Point","coordinates":[24.72042,42.125211]},"properties":{"name":"кв. Южен - бул. Ал. Стамболийски","band":3,"modes":"bus","arr":["16","36"],"off":[0,-0.8]}},{"type":"Feature","geometry":{"type":"Point","coordinates":[24.72042,42.125211]},"properties":{"line":"16","mode":"bus","color":"#0059a9","colorDark":"#00294f","band":3,"off":[-1.7,1.1]}},{"type":"Feature","geometry":{"type":"Point","coordinates":[24.72042,42.125211]},"properties":{"line":"36","mode":"bus","color":"#0059a9","colorDark":"#00294f","band":3,"off":[1.7,1.1]}},{"type":"Feature","geometry":{"type":"Point","coordinates":[24.759831,42.162102]},"properties":{"name":"кв. Гагарин - ул. Милеви скали","band":3,"modes":"bus","arr":["16"],"off":[0,-0.8]}},{"type":"Feature","geometry":{"type":"Point","coordinates":[24.759831,42.162102]},"properties":{"line":"16","mode":"bus","color":"#0059a9","colorDark":"#00294f","band":3,"off":[0,1.1]}},{"type":"Feature","geometry":{"type":"Point","coordinates":[24.788993,42.120913]},"properties":{"name":"срещу пожарната","band":3,"modes":"bus","arr":["18"],"off":[0,-0.8]}},{"type":"Feature","geometry":{"type":"Point","coordinates":[24.788993,42.120913]},"properties":{"name":"Недялка Шилева преди пожарната","band":3,"modes":"bus","arr":["18"],"off":[0,-1.9]}},{"type":"Feature","geometry":{"type":"Point","coordinates":[24.788993,42.120913]},"properties":{"line":"18","mode":"bus","color":"#0059a9","colorDark":"#00294f","band":3,"off":[0,1.1]}},{"type":"Feature","geometry":{"type":"Point","coordinates":[24.697508,42.1557]},"properties":{"name":"Хангарите","band":3,"modes":"bus","arr":["18"],"off":[0,-0.8]}},{"type":"Feature","geometry":{"type":"Point","coordinates":[24.697508,42.1557]},"properties":{"line":"18","mode":"bus","color":"#0059a9","colorDark":"#00294f","band":3,"off":[0,1.1]}},{"type":"Feature","geometry":{"type":"Point","coordinates":[24.786174,42.127591]},"properties":{"name":"Колелото на Цар Симеон","band":3,"modes":"bus","arr":["18","44","99"],"off":[0,-0.8]}},{"type":"Feature","geometry":{"type":"Point","coordinates":[24.786174,42.127591]},"properties":{"line":"18","mode":"bus","color":"#0059a9","colorDark":"#00294f","band":3,"off":[-3.4,1.1]}},{"type":"Feature","geometry":{"type":"Point","coordinates":[24.786174,42.127591]},"properties":{"line":"44","mode":"bus","color":"#0059a9","colorDark":"#00294f","band":3,"off":[0,1.1]}},{"type":"Feature","geometry":{"type":"Point","coordinates":[24.786174,42.127591]},"properties":{"line":"99","mode":"bus","color":"#0059a9","colorDark":"#00294f","band":3,"off":[3.4,1.1]}},{"type":"Feature","geometry":{"type":"Point","coordinates":[24.745707,42.16795]},"properties":{"name":"ТК Марица","band":3,"modes":"bus","arr":["21","99"],"off":[0,-0.8]}},{"type":"Feature","geometry":{"type":"Point","coordinates":[24.745707,42.16795]},"properties":{"line":"21","mode":"bus","color":"#0059a9","colorDark":"#00294f","band":3,"off":[-1.7,1.1]}},{"type":"Feature","geometry":{"type":"Point","coordinates":[24.745707,42.16795]},"properties":{"line":"99","mode":"bus","color":"#0059a9","colorDark":"#00294f","band":3,"off":[1.7,1.1]}},{"type":"Feature","geometry":{"type":"Point","coordinates":[24.796781,42.147404]},"properties":{"name":"Кръговото на ДК","band":3,"modes":"bus","arr":["22"],"off":[0,-0.8]}},{"type":"Feature","geometry":{"type":"Point","coordinates":[24.796781,42.147404]},"properties":{"line":"22","mode":"bus","color":"#0059a9","colorDark":"#00294f","band":3,"off":[0,1.1]}},{"type":"Feature","geometry":{"type":"Point","coordinates":[24.723464,42.1506]},"properties":{"name":"Обръщалото на ул. Младежка","band":3,"modes":"bus","arr":["22"],"off":[0,-0.8]}},{"type":"Feature","geometry":{"type":"Point","coordinates":[24.723464,42.1506]},"properties":{"name":"Младежка","band":3,"modes":"bus","arr":["22"],"off":[0,-3]}},{"type":"Feature","geometry":{"type":"Point","coordinates":[24.723464,42.1506]},"properties":{"line":"22","mode":"bus","color":"#0059a9","colorDark":"#00294f","band":3,"off":[0,1.1]}},{"type":"Feature","geometry":{"type":"Point","coordinates":[24.805279,42.141712]},"properties":{"name":"Изпитателен център","band":3,"modes":"bus","arr":["22"],"off":[0,-0.8]}},{"type":"Feature","geometry":{"type":"Point","coordinates":[24.805279,42.141712]},"properties":{"line":"22","mode":"bus","color":"#0059a9","colorDark":"#00294f","band":3,"off":[0,1.1]}},{"type":"Feature","geometry":{"type":"Point","coordinates":[24.809067,42.138406]},"properties":{"name":"Пречисвателна станция - Ягод.шосе","band":3,"modes":"bus","arr":["22"],"off":[0,-0.8]}},{"type":"Feature","geometry":{"type":"Point","coordinates":[24.809067,42.138406]},"properties":{"line":"22","mode":"bus","color":"#0059a9","colorDark":"#00294f","band":3,"off":[0,1.1]}},{"type":"Feature","geometry":{"type":"Point","coordinates":[24.7802,42.116165]},"properties":{"name":"завод Устрем - Асеновгр. шосе","band":3,"modes":"bus","arr":["24","44"],"off":[0,-0.8]}},{"type":"Feature","geometry":{"type":"Point","coordinates":[24.7802,42.116165]},"properties":{"line":"24","mode":"bus","color":"#0059a9","colorDark":"#00294f","band":3,"off":[-1.7,1.1]}},{"type":"Feature","geometry":{"type":"Point","coordinates":[24.7802,42.116165]},"properties":{"line":"44","mode":"bus","color":"#0059a9","colorDark":"#00294f","band":3,"off":[1.7,1.1]}},{"type":"Feature","geometry":{"type":"Point","coordinates":[24.769722,42.156779]},"properties":{"name":"ЗХА Родина","band":3,"modes":"bus","arr":["27"],"off":[0,-0.8]}},{"type":"Feature","geometry":{"type":"Point","coordinates":[24.769722,42.156779]},"properties":{"line":"27","mode":"bus","color":"#0059a9","colorDark":"#00294f","band":3,"off":[0,1.1]}},{"type":"Feature","geometry":{"type":"Point","coordinates":[24.756069,42.121039]},"properties":{"name":"ЕАЗ - Цар Борис ІІІ","band":3,"modes":"bus","arr":["37"],"off":[0,-0.8]}},{"type":"Feature","geometry":{"type":"Point","coordinates":[24.756069,42.121039]},"properties":{"line":"37","mode":"bus","color":"#0059a9","colorDark":"#00294f","band":3,"off":[0,1.1]}},{"type":"Feature","geometry":{"type":"Point","coordinates":[24.73899,42.170821]},"properties":{"name":"Стъкларски завод - пред портала","band":3,"modes":"bus","arr":["93"],"off":[0,-0.8]}},{"type":"Feature","geometry":{"type":"Point","coordinates":[24.73899,42.170821]},"properties":{"line":"93","mode":"bus","color":"#0059a9","colorDark":"#00294f","band":3,"off":[0,1.1]}},{"type":"Feature","geometry":{"type":"Point","coordinates":[24.775187,42.124582]},"properties":{"name":"Автоелектроника","band":3,"modes":"bus","arr":["93"],"off":[0,-0.8]}},{"type":"Feature","geometry":{"type":"Point","coordinates":[24.775187,42.124582]},"properties":{"line":"93","mode":"bus","color":"#0059a9","colorDark":"#00294f","band":3,"off":[0,1.1]}},{"type":"Feature","geometry":{"type":"Point","coordinates":[24.714779,42.172828]},"properties":{"name":"срещу Димитър Маджаров 2 ЕООД","band":3,"modes":"bus","arr":["93"],"off":[0,-0.8]}},{"type":"Feature","geometry":{"type":"Point","coordinates":[24.714779,42.172828]},"properties":{"name":"пред Димитър Маджаров 2 ЕООД","band":3,"modes":"bus","arr":["93"],"off":[0,-3]}},{"type":"Feature","geometry":{"type":"Point","coordinates":[24.714779,42.172828]},"properties":{"line":"93","mode":"bus","color":"#0059a9","colorDark":"#00294f","band":3,"off":[0,1.1]}},{"type":"Feature","geometry":{"type":"Point","coordinates":[24.796066,42.128195]},"properties":{"name":"2-ра Авто колона","band":3,"modes":"bus","arr":["99"],"off":[0,-0.8]}},{"type":"Feature","geometry":{"type":"Point","coordinates":[24.796066,42.128195]},"properties":{"line":"99","mode":"bus","color":"#0059a9","colorDark":"#00294f","band":3,"off":[0,1.1]}},{"type":"Feature","geometry":{"type":"Point","coordinates":[24.719267,42.163502]},"properties":{"name":"КАТ","band":3,"modes":"bus","arr":["113"],"off":[0,-0.8]}},{"type":"Feature","geometry":{"type":"Point","coordinates":[24.719267,42.163502]},"properties":{"line":"113","mode":"bus","color":"#0059a9","colorDark":"#00294f","band":3,"off":[0,1.1]}},{"type":"Feature","geometry":{"type":"Point","coordinates":[24.786199,42.160701]},"properties":{"name":"кв. Изгрев","band":3,"modes":"bus","arr":["116"],"off":[0,-0.8]}},{"type":"Feature","geometry":{"type":"Point","coordinates":[24.786199,42.160701]},"properties":{"line":"116","mode":"bus","color":"#0059a9","colorDark":"#00294f","band":3,"off":[0,1.1]}},{"type":"Feature","geometry":{"type":"Point","coordinates":[24.702533,42.100464]},"properties":{"name":"кв. Коматево - последна спирка","band":4,"modes":"bus","arr":["1","20","27"],"off":[0,-0.8]}},{"type":"Feature","geometry":{"type":"Point","coordinates":[24.702533,42.100464]},"properties":{"line":"1","mode":"bus","color":"#0059a9","colorDark":"#00294f","band":4,"off":[-3.4,1.1]}},{"type":"Feature","geometry":{"type":"Point","coordinates":[24.702533,42.100464]},"properties":{"line":"20","mode":"bus","color":"#0059a9","colorDark":"#00294f","band":4,"off":[0,1.1]}},{"type":"Feature","geometry":{"type":"Point","coordinates":[24.702533,42.100464]},"properties":{"line":"27","mode":"bus","color":"#0059a9","colorDark":"#00294f","band":4,"off":[3.4,1.1]}},{"type":"Feature","geometry":{"type":"Point","coordinates":[24.737556,42.185987]},"properties":{"name":"АПК-Карловско шосе","band":4,"modes":"bus","arr":["1","25"],"off":[0,-0.8]}},{"type":"Feature","geometry":{"type":"Point","coordinates":[24.737556,42.185987]},"properties":{"line":"1","mode":"bus","color":"#0059a9","colorDark":"#00294f","band":4,"off":[-1.7,1.1]}},{"type":"Feature","geometry":{"type":"Point","coordinates":[24.737556,42.185987]},"properties":{"line":"25","mode":"bus","color":"#0059a9","colorDark":"#00294f","band":4,"off":[1.7,1.1]}},{"type":"Feature","geometry":{"type":"Point","coordinates":[24.712857,42.156879]},"properties":{"name":"ПУ - бул. България","band":4,"modes":"bus","arr":["4","18","20","44","222"],"off":[0,-0.8]}},{"type":"Feature","geometry":{"type":"Point","coordinates":[24.712857,42.156879]},"properties":{"line":"4","mode":"bus","color":"#0059a9","colorDark":"#00294f","band":4,"off":[-6.8,1.1]}},{"type":"Feature","geometry":{"type":"Point","coordinates":[24.712857,42.156879]},"properties":{"line":"18","mode":"bus","color":"#0059a9","colorDark":"#00294f","band":4,"off":[-3.4,1.1]}},{"type":"Feature","geometry":{"type":"Point","coordinates":[24.712857,42.156879]},"properties":{"line":"20","mode":"bus","color":"#0059a9","colorDark":"#00294f","band":4,"off":[0,1.1]}},{"type":"Feature","geometry":{"type":"Point","coordinates":[24.712857,42.156879]},"properties":{"line":"44","mode":"bus","color":"#0059a9","colorDark":"#00294f","band":4,"off":[3.4,1.1]}},{"type":"Feature","geometry":{"type":"Point","coordinates":[24.712857,42.156879]},"properties":{"line":"222","mode":"bus","color":"#0059a9","colorDark":"#00294f","band":4,"off":[6.8,1.1]}},{"type":"Feature","geometry":{"type":"Point","coordinates":[24.798919,42.144034]},"properties":{"name":"кв. Тракия (а-13)","band":4,"modes":"bus","arr":["4","10","17"],"off":[0,-0.8]}},{"type":"Feature","geometry":{"type":"Point","coordinates":[24.798919,42.144034]},"properties":{"line":"4","mode":"bus","color":"#0059a9","colorDark":"#00294f","band":4,"off":[-3.4,1.1]}},{"type":"Feature","geometry":{"type":"Point","coordinates":[24.798919,42.144034]},"properties":{"line":"10","mode":"bus","color":"#0059a9","colorDark":"#00294f","band":4,"off":[0,1.1]}},{"type":"Feature","geometry":{"type":"Point","coordinates":[24.798919,42.144034]},"properties":{"line":"17","mode":"bus","color":"#0059a9","colorDark":"#00294f","band":4,"off":[3.4,1.1]}},{"type":"Feature","geometry":{"type":"Point","coordinates":[24.677273,42.120085]},"properties":{"name":"Прослав - последна","band":4,"modes":"bus","arr":["6","15","24","66","222"],"off":[0,-0.8]}},{"type":"Feature","geometry":{"type":"Point","coordinates":[24.677273,42.120085]},"properties":{"line":"6","mode":"bus","color":"#0059a9","colorDark":"#00294f","band":4,"off":[-6.8,1.1]}},{"type":"Feature","geometry":{"type":"Point","coordinates":[24.677273,42.120085]},"properties":{"line":"15","mode":"bus","color":"#0059a9","colorDark":"#00294f","band":4,"off":[-3.4,1.1]}},{"type":"Feature","geometry":{"type":"Point","coordinates":[24.677273,42.120085]},"properties":{"line":"24","mode":"bus","color":"#0059a9","colorDark":"#00294f","band":4,"off":[0,1.1]}},{"type":"Feature","geometry":{"type":"Point","coordinates":[24.677273,42.120085]},"properties":{"line":"66","mode":"bus","color":"#0059a9","colorDark":"#00294f","band":4,"off":[3.4,1.1]}},{"type":"Feature","geometry":{"type":"Point","coordinates":[24.677273,42.120085]},"properties":{"line":"222","mode":"bus","color":"#0059a9","colorDark":"#00294f","band":4,"off":[6.8,1.1]}},{"type":"Feature","geometry":{"type":"Point","coordinates":[24.689306,42.127648]},"properties":{"name":"срещу ОДЗ Боряна","band":4,"modes":"bus","arr":["17"],"off":[0,-0.8]}},{"type":"Feature","geometry":{"type":"Point","coordinates":[24.689306,42.127648]},"properties":{"line":"17","mode":"bus","color":"#0059a9","colorDark":"#00294f","band":4,"off":[0,1.1]}},{"type":"Feature","geometry":{"type":"Point","coordinates":[24.781387,42.159426]},"properties":{"name":"кв. Изгрев - обръщало ул. Край","band":4,"modes":"bus","arr":["6","26","36"],"off":[0,-0.8]}},{"type":"Feature","geometry":{"type":"Point","coordinates":[24.781387,42.159426]},"properties":{"line":"6","mode":"bus","color":"#0059a9","colorDark":"#00294f","band":4,"off":[-3.4,1.1]}},{"type":"Feature","geometry":{"type":"Point","coordinates":[24.781387,42.159426]},"properties":{"line":"26","mode":"bus","color":"#0059a9","colorDark":"#00294f","band":4,"off":[0,1.1]}},{"type":"Feature","geometry":{"type":"Point","coordinates":[24.781387,42.159426]},"properties":{"line":"36","mode":"bus","color":"#0059a9","colorDark":"#00294f","band":4,"off":[3.4,1.1]}},{"type":"Feature","geometry":{"type":"Point","coordinates":[24.775481,42.166594]},"properties":{"name":"Рогошки гробища -последна спирка","band":4,"modes":"bus","arr":["7"],"off":[0,-0.8]}},{"type":"Feature","geometry":{"type":"Point","coordinates":[24.775481,42.166594]},"properties":{"line":"7","mode":"bus","color":"#0059a9","colorDark":"#00294f","band":4,"off":[0,1.1]}},{"type":"Feature","geometry":{"type":"Point","coordinates":[24.728415,42.106091]},"properties":{"name":"Овощарски институт","band":4,"modes":"bus","arr":["7","113"],"off":[0,-0.8]}},{"type":"Feature","geometry":{"type":"Point","coordinates":[24.728415,42.106091]},"properties":{"line":"7","mode":"bus","color":"#0059a9","colorDark":"#00294f","band":4,"off":[-1.7,1.1]}},{"type":"Feature","geometry":{"type":"Point","coordinates":[24.728415,42.106091]},"properties":{"line":"113","mode":"bus","color":"#0059a9","colorDark":"#00294f","band":4,"off":[1.7,1.1]}},{"type":"Feature","geometry":{"type":"Point","coordinates":[24.778067,42.132917]},"properties":{"name":"жк Тракия (а-12)","band":4,"modes":"bus","arr":["9","21","25","29","66"],"off":[0,-0.8]}},{"type":"Feature","geometry":{"type":"Point","coordinates":[24.778067,42.132917]},"properties":{"line":"9","mode":"bus","color":"#0059a9","colorDark":"#00294f","band":4,"off":[-6.8,1.1]}},{"type":"Feature","geometry":{"type":"Point","coordinates":[24.778067,42.132917]},"properties":{"line":"21","mode":"bus","color":"#0059a9","colorDark":"#00294f","band":4,"off":[-3.4,1.1]}},{"type":"Feature","geometry":{"type":"Point","coordinates":[24.778067,42.132917]},"properties":{"line":"25","mode":"bus","color":"#0059a9","colorDark":"#00294f","band":4,"off":[0,1.1]}},{"type":"Feature","geometry":{"type":"Point","coordinates":[24.778067,42.132917]},"properties":{"line":"29","mode":"bus","color":"#0059a9","colorDark":"#00294f","band":4,"off":[3.4,1.1]}},{"type":"Feature","geometry":{"type":"Point","coordinates":[24.778067,42.132917]},"properties":{"line":"66","mode":"bus","color":"#0059a9","colorDark":"#00294f","band":4,"off":[6.8,1.1]}},{"type":"Feature","geometry":{"type":"Point","coordinates":[24.759102,42.176705]},"properties":{"name":"ИЗК Марица -Брезовко щосе","band":4,"modes":"bus","arr":["9","12","15"],"off":[0,-0.8]}},{"type":"Feature","geometry":{"type":"Point","coordinates":[24.759102,42.176705]},"properties":{"line":"9","mode":"bus","color":"#0059a9","colorDark":"#00294f","band":4,"off":[-3.4,1.1]}},{"type":"Feature","geometry":{"type":"Point","coordinates":[24.759102,42.176705]},"properties":{"line":"12","mode":"bus","color":"#0059a9","colorDark":"#00294f","band":4,"off":[0,1.1]}},{"type":"Feature","geometry":{"type":"Point","coordinates":[24.759102,42.176705]},"properties":{"line":"15","mode":"bus","color":"#0059a9","colorDark":"#00294f","band":4,"off":[3.4,1.1]}},{"type":"Feature","geometry":{"type":"Point","coordinates":[24.701786,42.127825]},"properties":{"name":"кв. Смирненски - ул. Юндола","band":4,"modes":"bus","arr":["10","12","26","29","37"],"off":[0,-0.8]}},{"type":"Feature","geometry":{"type":"Point","coordinates":[24.701786,42.127825]},"properties":{"line":"10","mode":"bus","color":"#0059a9","colorDark":"#00294f","band":4,"off":[-6.8,1.1]}},{"type":"Feature","geometry":{"type":"Point","coordinates":[24.701786,42.127825]},"properties":{"line":"12","mode":"bus","color":"#0059a9","colorDark":"#00294f","band":4,"off":[-3.4,1.1]}},{"type":"Feature","geometry":{"type":"Point","coordinates":[24.701786,42.127825]},"properties":{"line":"26","mode":"bus","color":"#0059a9","colorDark":"#00294f","band":4,"off":[0,1.1]}},{"type":"Feature","geometry":{"type":"Point","coordinates":[24.701786,42.127825]},"properties":{"line":"29","mode":"bus","color":"#0059a9","colorDark":"#00294f","band":4,"off":[3.4,1.1]}},{"type":"Feature","geometry":{"type":"Point","coordinates":[24.701786,42.127825]},"properties":{"line":"37","mode":"bus","color":"#0059a9","colorDark":"#00294f","band":4,"off":[6.8,1.1]}},{"type":"Feature","geometry":{"type":"Point","coordinates":[24.760907,42.103101]},"properties":{"name":"след Митница Кукленско шосе","band":4,"modes":"bus","arr":["11","116"],"off":[0,-0.8]}},{"type":"Feature","geometry":{"type":"Point","coordinates":[24.760907,42.103101]},"properties":{"line":"11","mode":"bus","color":"#0059a9","colorDark":"#00294f","band":4,"off":[-1.7,1.1]}},{"type":"Feature","geometry":{"type":"Point","coordinates":[24.760907,42.103101]},"properties":{"line":"116","mode":"bus","color":"#0059a9","colorDark":"#00294f","band":4,"off":[1.7,1.1]}},{"type":"Feature","geometry":{"type":"Point","coordinates":[24.719971,42.16914]},"properties":{"name":"След бензиностанция Еко","band":4,"modes":"bus","arr":["11"],"off":[0,-0.8]}},{"type":"Feature","geometry":{"type":"Point","coordinates":[24.719971,42.16914]},"properties":{"line":"11","mode":"bus","color":"#0059a9","colorDark":"#00294f","band":4,"off":[0,1.1]}},{"type":"Feature","geometry":{"type":"Point","coordinates":[24.72042,42.125211]},"properties":{"name":"кв. Южен - бул. Ал. Стамболийски","band":4,"modes":"bus","arr":["16","36"],"off":[0,-0.8]}},{"type":"Feature","geometry":{"type":"Point","coordinates":[24.72042,42.125211]},"properties":{"line":"16","mode":"bus","color":"#0059a9","colorDark":"#00294f","band":4,"off":[-1.7,1.1]}},{"type":"Feature","geometry":{"type":"Point","coordinates":[24.72042,42.125211]},"properties":{"line":"36","mode":"bus","color":"#0059a9","colorDark":"#00294f","band":4,"off":[1.7,1.1]}},{"type":"Feature","geometry":{"type":"Point","coordinates":[24.759831,42.162102]},"properties":{"name":"кв. Гагарин - ул. Милеви скали","band":4,"modes":"bus","arr":["16"],"off":[0,-0.8]}},{"type":"Feature","geometry":{"type":"Point","coordinates":[24.759831,42.162102]},"properties":{"line":"16","mode":"bus","color":"#0059a9","colorDark":"#00294f","band":4,"off":[0,1.1]}},{"type":"Feature","geometry":{"type":"Point","coordinates":[24.788993,42.120913]},"properties":{"name":"срещу пожарната","band":4,"modes":"bus","arr":["18"],"off":[0,-0.8]}},{"type":"Feature","geometry":{"type":"Point","coordinates":[24.788993,42.120913]},"properties":{"name":"Недялка Шилева преди пожарната","band":4,"modes":"bus","arr":["18"],"off":[0,-1.9]}},{"type":"Feature","geometry":{"type":"Point","coordinates":[24.788993,42.120913]},"properties":{"line":"18","mode":"bus","color":"#0059a9","colorDark":"#00294f","band":4,"off":[0,1.1]}},{"type":"Feature","geometry":{"type":"Point","coordinates":[24.697508,42.1557]},"properties":{"name":"Хангарите","band":4,"modes":"bus","arr":["18"],"off":[0,-0.8]}},{"type":"Feature","geometry":{"type":"Point","coordinates":[24.697508,42.1557]},"properties":{"line":"18","mode":"bus","color":"#0059a9","colorDark":"#00294f","band":4,"off":[0,1.1]}},{"type":"Feature","geometry":{"type":"Point","coordinates":[24.786174,42.127591]},"properties":{"name":"Колелото на Цар Симеон","band":4,"modes":"bus","arr":["18","44","99"],"off":[0,-0.8]}},{"type":"Feature","geometry":{"type":"Point","coordinates":[24.786174,42.127591]},"properties":{"line":"18","mode":"bus","color":"#0059a9","colorDark":"#00294f","band":4,"off":[-3.4,1.1]}},{"type":"Feature","geometry":{"type":"Point","coordinates":[24.786174,42.127591]},"properties":{"line":"44","mode":"bus","color":"#0059a9","colorDark":"#00294f","band":4,"off":[0,1.1]}},{"type":"Feature","geometry":{"type":"Point","coordinates":[24.786174,42.127591]},"properties":{"line":"99","mode":"bus","color":"#0059a9","colorDark":"#00294f","band":4,"off":[3.4,1.1]}},{"type":"Feature","geometry":{"type":"Point","coordinates":[24.745707,42.16795]},"properties":{"name":"ТК Марица","band":4,"modes":"bus","arr":["21","99"],"off":[0,-0.8]}},{"type":"Feature","geometry":{"type":"Point","coordinates":[24.745707,42.16795]},"properties":{"line":"21","mode":"bus","color":"#0059a9","colorDark":"#00294f","band":4,"off":[-1.7,1.1]}},{"type":"Feature","geometry":{"type":"Point","coordinates":[24.745707,42.16795]},"properties":{"line":"99","mode":"bus","color":"#0059a9","colorDark":"#00294f","band":4,"off":[1.7,1.1]}},{"type":"Feature","geometry":{"type":"Point","coordinates":[24.796781,42.147404]},"properties":{"name":"Кръговото на ДК","band":4,"modes":"bus","arr":["22"],"off":[0,-0.8]}},{"type":"Feature","geometry":{"type":"Point","coordinates":[24.796781,42.147404]},"properties":{"line":"22","mode":"bus","color":"#0059a9","colorDark":"#00294f","band":4,"off":[0,1.1]}},{"type":"Feature","geometry":{"type":"Point","coordinates":[24.723464,42.1506]},"properties":{"name":"Обръщалото на ул. Младежка","band":4,"modes":"bus","arr":["22"],"off":[0,-0.8]}},{"type":"Feature","geometry":{"type":"Point","coordinates":[24.723464,42.1506]},"properties":{"name":"Младежка","band":4,"modes":"bus","arr":["22"],"off":[0,-3]}},{"type":"Feature","geometry":{"type":"Point","coordinates":[24.723464,42.1506]},"properties":{"line":"22","mode":"bus","color":"#0059a9","colorDark":"#00294f","band":4,"off":[0,1.1]}},{"type":"Feature","geometry":{"type":"Point","coordinates":[24.805279,42.141712]},"properties":{"name":"Изпитателен център","band":4,"modes":"bus","arr":["22"],"off":[0,-0.8]}},{"type":"Feature","geometry":{"type":"Point","coordinates":[24.805279,42.141712]},"properties":{"line":"22","mode":"bus","color":"#0059a9","colorDark":"#00294f","band":4,"off":[0,1.1]}},{"type":"Feature","geometry":{"type":"Point","coordinates":[24.809067,42.138406]},"properties":{"name":"Пречисвателна станция - Ягод.шосе","band":4,"modes":"bus","arr":["22"],"off":[0,-0.8]}},{"type":"Feature","geometry":{"type":"Point","coordinates":[24.809067,42.138406]},"properties":{"line":"22","mode":"bus","color":"#0059a9","colorDark":"#00294f","band":4,"off":[0,1.1]}},{"type":"Feature","geometry":{"type":"Point","coordinates":[24.7802,42.116165]},"properties":{"name":"завод Устрем - Асеновгр. шосе","band":4,"modes":"bus","arr":["24","44"],"off":[0,-0.8]}},{"type":"Feature","geometry":{"type":"Point","coordinates":[24.7802,42.116165]},"properties":{"line":"24","mode":"bus","color":"#0059a9","colorDark":"#00294f","band":4,"off":[-1.7,1.1]}},{"type":"Feature","geometry":{"type":"Point","coordinates":[24.7802,42.116165]},"properties":{"line":"44","mode":"bus","color":"#0059a9","colorDark":"#00294f","band":4,"off":[1.7,1.1]}},{"type":"Feature","geometry":{"type":"Point","coordinates":[24.769722,42.156779]},"properties":{"name":"ЗХА Родина","band":4,"modes":"bus","arr":["27"],"off":[0,-0.8]}},{"type":"Feature","geometry":{"type":"Point","coordinates":[24.769722,42.156779]},"properties":{"line":"27","mode":"bus","color":"#0059a9","colorDark":"#00294f","band":4,"off":[0,1.1]}},{"type":"Feature","geometry":{"type":"Point","coordinates":[24.756069,42.121039]},"properties":{"name":"ЕАЗ - Цар Борис ІІІ","band":4,"modes":"bus","arr":["37"],"off":[0,-0.8]}},{"type":"Feature","geometry":{"type":"Point","coordinates":[24.756069,42.121039]},"properties":{"line":"37","mode":"bus","color":"#0059a9","colorDark":"#00294f","band":4,"off":[0,1.1]}},{"type":"Feature","geometry":{"type":"Point","coordinates":[24.73899,42.170821]},"properties":{"name":"Стъкларски завод - пред портала","band":4,"modes":"bus","arr":["93"],"off":[0,-0.8]}},{"type":"Feature","geometry":{"type":"Point","coordinates":[24.73899,42.170821]},"properties":{"line":"93","mode":"bus","color":"#0059a9","colorDark":"#00294f","band":4,"off":[0,1.1]}},{"type":"Feature","geometry":{"type":"Point","coordinates":[24.775187,42.124582]},"properties":{"name":"Автоелектроника","band":4,"modes":"bus","arr":["93"],"off":[0,-0.8]}},{"type":"Feature","geometry":{"type":"Point","coordinates":[24.775187,42.124582]},"properties":{"line":"93","mode":"bus","color":"#0059a9","colorDark":"#00294f","band":4,"off":[0,1.1]}},{"type":"Feature","geometry":{"type":"Point","coordinates":[24.714639,42.17304]},"properties":{"name":"пред Димитър Маджаров 2 ЕООД","band":4,"modes":"bus","arr":["93"],"off":[0,-0.8]}},{"type":"Feature","geometry":{"type":"Point","coordinates":[24.714639,42.17304]},"properties":{"line":"93","mode":"bus","color":"#0059a9","colorDark":"#00294f","band":4,"off":[0,1.1]}},{"type":"Feature","geometry":{"type":"Point","coordinates":[24.714918,42.172615]},"properties":{"name":"срещу Димитър Маджаров 2 ЕООД","band":4,"modes":"bus","arr":["93"],"off":[0,-0.8]}},{"type":"Feature","geometry":{"type":"Point","coordinates":[24.714918,42.172615]},"properties":{"line":"93","mode":"bus","color":"#0059a9","colorDark":"#00294f","band":4,"off":[0,1.1]}},{"type":"Feature","geometry":{"type":"Point","coordinates":[24.796066,42.128195]},"properties":{"name":"2-ра Авто колона","band":4,"modes":"bus","arr":["99"],"off":[0,-0.8]}},{"type":"Feature","geometry":{"type":"Point","coordinates":[24.796066,42.128195]},"properties":{"line":"99","mode":"bus","color":"#0059a9","colorDark":"#00294f","band":4,"off":[0,1.1]}},{"type":"Feature","geometry":{"type":"Point","coordinates":[24.719267,42.163502]},"properties":{"name":"КАТ","band":4,"modes":"bus","arr":["113"],"off":[0,-0.8]}},{"type":"Feature","geometry":{"type":"Point","coordinates":[24.719267,42.163502]},"properties":{"line":"113","mode":"bus","color":"#0059a9","colorDark":"#00294f","band":4,"off":[0,1.1]}},{"type":"Feature","geometry":{"type":"Point","coordinates":[24.786199,42.160701]},"properties":{"name":"кв. Изгрев","band":4,"modes":"bus","arr":["116"],"off":[0,-0.8]}},{"type":"Feature","geometry":{"type":"Point","coordinates":[24.786199,42.160701]},"properties":{"line":"116","mode":"bus","color":"#0059a9","colorDark":"#00294f","band":4,"off":[0,1.1]}}]}