{"type":"FeatureCollection","features":[{"type":"Feature","properties":{"mode":"bus","n":7,"arr":["1","4","7","9","15","25","27"],"lines":"1, 4, 7, 9, 15, 25, 27"},"geometry":{"type":"LineString","coordinates":[[24.750469,42.152635],[24.750141,42.153732],[24.750141,42.153755],[24.750153,42.153776],[24.750189,42.153813],[24.750198,42.153885],[24.750155,42.153953],[24.750067,42.153994],[24.749988,42.154077],[24.749499,42.155726],[24.749454,42.155979],[24.749523,42.156074],[24.74954,42.156146],[24.749482,42.156492],[24.749323,42.156676],[24.749005,42.158441],[24.748985,42.159082]]}},{"type":"Feature","properties":{"mode":"bus","n":7,"arr":["1","4","7","9","15","25","27"],"lines":"1, 4, 7, 9, 15, 25, 27"},"geometry":{"type":"LineString","coordinates":[[24.748591,42.159056],[24.748823,42.158529],[24.748913,42.158097],[24.749165,42.156718],[24.749067,42.15659],[24.749173,42.156072],[24.749188,42.15604],[24.74922,42.156015],[24.749323,42.155961],[24.749906,42.154059],[24.749833,42.153834],[24.749878,42.153769],[24.749955,42.153732],[24.750354,42.152515],[24.750362,42.152231],[24.750299,42.151891]]}},{"type":"Feature","properties":{"mode":"bus","n":6,"arr":["1","4","9","15","16","25"],"lines":"1, 4, 9, 15, 16, 25"},"geometry":{"type":"LineString","coordinates":[[24.748985,42.159082],[24.74898,42.159267],[24.748927,42.15939]]}},{"type":"Feature","properties":{"mode":"bus","n":6,"arr":["1","4","9","15","16","25"],"lines":"1, 4, 9, 15, 16, 25"},"geometry":{"type":"LineString","coordinates":[[24.744446,42.159135],[24.742306,42.159072]]}},{"type":"Feature","properties":{"mode":"bus","n":6,"arr":["1","4","9","15","16","25"],"lines":"1, 4, 9, 15, 16, 25"},"geometry":{"type":"LineString","coordinates":[[24.742338,42.158952],[24.744384,42.158999],[24.747715,42.159117],[24.748591,42.159056]]}},{"type":"Feature","properties":{"mode":"bus","n":5,"arr":["1","9","15","16","25"],"lines":"1, 9, 15, 16, 25"},"geometry":{"type":"LineString","coordinates":[[24.748927,42.15939],[24.748461,42.160139],[24.747911,42.16155],[24.747561,42.162482],[24.747534,42.162685],[24.747559,42.162938]]}},{"type":"Feature","properties":{"mode":"bus","n":6,"arr":["6","21","22","25","26","116"],"lines":"6, 21, 22, 25, 26, 116"},"geometry":{"type":"LineString","coordinates":[[24.76339,42.153155],[24.76328,42.153183],[24.763152,42.153162],[24.760383,42.153076],[24.759851,42.153018],[24.758678,42.152749],[24.755399,42.151808],[24.754831,42.151742],[24.754331,42.151782],[24.753676,42.151906],[24.752683,42.152263],[24.752415,42.152327],[24.752058,42.152354],[24.75176,42.152346],[24.751207,42.152254]]}},{"type":"Feature","properties":{"mode":"bus","n":6,"arr":["6","21","22","25","26","116"],"lines":"6, 21, 22, 25, 26, 116"},"geometry":{"type":"LineString","coordinates":[[24.750386,42.151816],[24.750934,42.15203],[24.751288,42.152143],[24.751776,42.152254],[24.752045,42.152265],[24.752281,42.152249],[24.752706,42.152149],[24.753644,42.151811],[24.753951,42.151732],[24.7546,42.151636],[24.755028,42.151648],[24.755278,42.151676],[24.755935,42.151878],[24.75912,42.152745],[24.759899,42.152924],[24.760401,42.152985],[24.76222,42.153039],[24.762374,42.153032],[24.76314,42.152904]]}},{"type":"Feature","properties":{"mode":"bus","n":5,"arr":["6","17","24","113","222"],"lines":"6, 17, 24, 113, 222"},"geometry":{"type":"LineString","coordinates":[[24.738691,42.138935],[24.738598,42.138947],[24.738471,42.139009],[24.738333,42.139043],[24.734065,42.141345],[24.733713,42.141695]]}},{"type":"Feature","properties":{"mode":"bus","n":5,"arr":["9","21","25","29","66"],"lines":"9, 21, 25, 29, 66"},"geometry":{"type":"LineString","coordinates":[[24.780176,42.131392],[24.777309,42.130961],[24.776329,42.130724],[24.77623,42.130739],[24.776055,42.130702],[24.775942,42.130596],[24.775939,42.130446],[24.775989,42.130379],[24.776161,42.130301],[24.776867,42.129428]]}},{"type":"Feature","properties":{"mode":"bus","n":5,"arr":["9","21","25","29","66"],"lines":"9, 21, 25, 29, 66"},"geometry":{"type":"LineString","coordinates":[[24.776039,42.133706],[24.776004,42.132672],[24.776028,42.132587],[24.776218,42.132361],[24.776444,42.132268],[24.776577,42.132249],[24.776714,42.132252],[24.776978,42.132332],[24.778494,42.133138],[24.77858,42.133266],[24.778596,42.133695]]}},{"type":"Feature","properties":{"mode":"bus","n":5,"arr":["9","21","25","29","66"],"lines":"9, 21, 25, 29, 66"},"geometry":{"type":"LineString","coordinates":[[24.777713,42.12813],[24.77764,42.128206],[24.776867,42.129428],[24.776675,42.130047],[24.776499,42.130418]]}},{"type":"Feature","properties":{"mode":"bus","n":7,"arr":["9","18","24","25","29","44","93"],"lines":"9, 18, 24, 25, 29, 44, 93"},"geometry":{"type":"LineString","coordinates":[[24.788221,42.141274],[24.786757,42.142251],[24.786539,42.142468],[24.785844,42.143569]]}},{"type":"Feature","properties":{"mode":"bus","n":7,"arr":["9","18","24","25","29","44","93"],"lines":"9, 18, 24, 25, 29, 44, 93"},"geometry":{"type":"LineString","coordinates":[[24.788071,42.141144],[24.786632,42.142042],[24.786093,42.142514],[24.785802,42.142838],[24.785557,42.143164]]}},{"type":"Feature","properties":{"mode":"bus","n":5,"arr":["9","18","24","29","44"],"lines":"9, 18, 24, 29, 44"},"geometry":{"type":"LineString","coordinates":[[24.785844,42.143569],[24.785567,42.143582],[24.785307,42.143502],[24.784248,42.143006],[24.78227,42.142224],[24.774053,42.139162],[24.766829,42.136655],[24.764414,42.135854],[24.763626,42.135618]]}},{"type":"Feature","properties":{"mode":"bus","n":5,"arr":["9","18","24","29","44"],"lines":"9, 18, 24, 29, 44"},"geometry":{"type":"LineString","coordinates":[[24.763548,42.135446],[24.763879,42.13553],[24.76507,42.135906],[24.774112,42.13908],[24.783377,42.142483],[24.784635,42.142915],[24.785347,42.143087],[24.785557,42.143164]]}},{"type":"Feature","properties":{"mode":"bus","n":7,"arr":["9","10","21","25","29","66","99"],"lines":"9, 10, 21, 25, 29, 66, 99"},"geometry":{"type":"LineString","coordinates":[[24.776499,42.130418],[24.77652,42.130504],[24.776473,42.130637],[24.776329,42.130724],[24.776143,42.130985],[24.775805,42.131349],[24.775382,42.131867],[24.774473,42.133338],[24.774467,42.133353],[24.774469,42.133366],[24.774479,42.133377],[24.774497,42.133385],[24.775464,42.133696],[24.775606,42.133716],[24.776039,42.133706]]}},{"type":"Feature","properties":{"mode":"bus","n":7,"arr":["9","10","21","25","29","66","99"],"lines":"9, 10, 21, 25, 29, 66, 99"},"geometry":{"type":"LineString","coordinates":[[24.778596,42.133695],[24.779951,42.13367],[24.779977,42.133665],[24.779993,42.133653],[24.779999,42.133633],[24.779982,42.132202],[24.780176,42.131392]]}},{"type":"Feature","properties":{"mode":"bus","n":8,"arr":["12","16","17","18","24","113","116","222"],"lines":"12, 16, 17, 18, 24, 113, 116, 222"},"geometry":{"type":"LineString","coordinates":[[24.742528,42.135464],[24.7425,42.136035],[24.74242,42.136171],[24.742263,42.13625]]}},{"type":"Feature","properties":{"mode":"bus","n":8,"arr":["12","16","17","18","24","113","116","222"],"lines":"12, 16, 17, 18, 24, 113, 116, 222"},"geometry":{"type":"LineString","coordinates":[[24.741831,42.136116],[24.741797,42.135976],[24.741827,42.135728]]}},{"type":"Feature","properties":{"mode":"bus","n":5,"arr":["17","24","36","37","116"],"lines":"17, 24, 36, 37, 116"},"geometry":{"type":"LineString","coordinates":[[24.755284,42.1228],[24.755309,42.122836],[24.755314,42.122848],[24.755312,42.12286],[24.755304,42.122872],[24.755255,42.122917]]}},{"type":"Feature","properties":{"mode":"bus","n":5,"arr":["17","18","24","113","222"],"lines":"17, 18, 24, 113, 222"},"geometry":{"type":"LineString","coordinates":[[24.742039,42.136251],[24.742263,42.13625]]}},{"type":"Feature","properties":{"mode":"bus","n":6,"arr":["1","17","24","27","36","116"],"lines":"1, 17, 24, 27, 36, 116"},"geometry":{"type":"LineString","coordinates":[[24.740749,42.124033],[24.738924,42.12463]]}},{"type":"Feature","properties":{"mode":"bus","n":9,"arr":["1","7","11","18","20","26","27","29","36"],"lines":"1, 7, 11, 18, 20, 26, 27, 29, 36"},"geometry":{"type":"LineString","coordinates":[[24.746923,42.135592],[24.748267,42.135772]]}},{"type":"Feature","properties":{"mode":"bus","n":9,"arr":["1","7","11","18","20","26","27","29","36"],"lines":"1, 7, 11, 18, 20, 26, 27, 29, 36"},"geometry":{"type":"LineString","coordinates":[[24.75175,42.13631],[24.749687,42.136004],[24.748392,42.13584],[24.748306,42.135793],[24.748294,42.135785],[24.748289,42.135779],[24.748291,42.135773],[24.748299,42.135769],[24.748315,42.135767],[24.748418,42.135755],[24.751823,42.136206],[24.752172,42.136231],[24.752604,42.13622]]}},{"type":"Feature","properties":{"mode":"bus","n":11,"arr":["1","7","11","18","20","26","27","29","36","44","99"],"lines":"1, 7, 11, 18, 20, 26, 27, 29, 36, 44, 99"},"geometry":{"type":"LineString","coordinates":[[24.752604,42.13622],[24.752809,42.136214]]}},{"type":"Feature","properties":{"mode":"bus","n":8,"arr":["1","4","7","11","20","26","27","37"],"lines":"1, 4, 7, 11, 20, 26, 27, 37"},"geometry":{"type":"LineString","coordinates":[[24.752809,42.136214],[24.752712,42.136305]]}},{"type":"Feature","properties":{"mode":"bus","n":10,"arr":["1","4","7","11","20","26","27","37","44","99"],"lines":"1, 4, 7, 11, 20, 26, 27, 37, 44, 99"},"geometry":{"type":"LineString","coordinates":[[24.752712,42.136305],[24.752477,42.136572],[24.752339,42.136789],[24.752248,42.136987],[24.752197,42.137252],[24.751756,42.141581]]}},{"type":"Feature","properties":{"mode":"bus","n":10,"arr":["1","4","7","11","20","26","27","37","44","99"],"lines":"1, 4, 7, 11, 20, 26, 27, 37, 44, 99"},"geometry":{"type":"LineString","coordinates":[[24.751453,42.143238],[24.751653,42.141487],[24.751746,42.140188],[24.751824,42.1395],[24.752116,42.137191],[24.752179,42.136882]]}},{"type":"Feature","properties":{"mode":"bus","n":14,"arr":["1","4","7","9","10","11","20","26","27","37","44","66","93","99"],"lines":"1, 4, 7, 9, 10, 11, 20, 26, 27, 37, 44, 66, 93, 99"},"geometry":{"type":"LineString","coordinates":[[24.751756,42.141581],[24.751599,42.143164],[24.751537,42.145316],[24.751507,42.145633],[24.751366,42.146247],[24.750742,42.148517],[24.750538,42.14945],[24.750284,42.151152],[24.750323,42.151531],[24.750386,42.151816]]}},{"type":"Feature","properties":{"mode":"bus","n":14,"arr":["1","4","7","9","10","11","20","26","27","37","44","66","93","99"],"lines":"1, 4, 7, 9, 10, 11, 20, 26, 27, 37, 44, 66, 93, 99"},"geometry":{"type":"LineString","coordinates":[[24.750182,42.15099],[24.750434,42.149322],[24.751333,42.14591],[24.751387,42.145389],[24.751416,42.143827],[24.751453,42.143238]]}},{"type":"Feature","properties":{"mode":"bus","n":14,"arr":["1","4","7","9","10","11","15","20","27","37","44","66","93","99"],"lines":"1, 4, 7, 9, 10, 11, 15, 20, 27, 37, 44, 66, 93, 99"},"geometry":{"type":"LineString","coordinates":[[24.750386,42.151816],[24.750406,42.151936]]}},{"type":"Feature","properties":{"mode":"bus","n":6,"arr":["1","4","7","9","15","27"],"lines":"1, 4, 7, 9, 15, 27"},"geometry":{"type":"LineString","coordinates":[[24.750406,42.151936],[24.750456,42.152288],[24.750469,42.152635]]}},{"type":"Feature","properties":{"mode":"bus","n":9,"arr":["1","4","7","9","10","25","26","27","66"],"lines":"1, 4, 7, 9, 10, 25, 26, 27, 66"},"geometry":{"type":"LineString","coordinates":[[24.750299,42.151891],[24.750268,42.151758]]}},{"type":"Feature","properties":{"mode":"bus","n":8,"arr":["1","4","7","9","10","26","27","66"],"lines":"1, 4, 7, 9, 10, 26, 27, 66"},"geometry":{"type":"LineString","coordinates":[[24.750268,42.151758],[24.750202,42.151391],[24.750182,42.15099]]}},{"type":"Feature","properties":{"mode":"bus","n":6,"arr":["1","7","11","20","26","27"],"lines":"1, 7, 11, 20, 26, 27"},"geometry":{"type":"LineString","coordinates":[[24.752179,42.136882],[24.752131,42.136567],[24.752014,42.136431],[24.751906,42.136364],[24.75175,42.13631]]}},{"type":"Feature","properties":{"mode":"bus","n":5,"arr":["4","18","20","44","222"],"lines":"4, 18, 20, 44, 222"},"geometry":{"type":"LineString","coordinates":[[24.720778,42.156727],[24.713546,42.156028],[24.712859,42.155934],[24.712831,42.155935],[24.712812,42.155944],[24.712802,42.155963],[24.712725,42.15625],[24.712859,42.156824]]}},{"type":"Feature","properties":{"mode":"bus","n":5,"arr":["4","18","20","44","222"],"lines":"4, 18, 20, 44, 222"},"geometry":{"type":"LineString","coordinates":[[24.712849,42.155805],[24.713472,42.155885],[24.716629,42.156205],[24.720816,42.156603]]}},{"type":"Feature","properties":{"mode":"bus","n":7,"arr":["4","11","18","20","44","113","222"],"lines":"4, 11, 18, 20, 44, 113, 222"},"geometry":{"type":"LineString","coordinates":[[24.720816,42.156603],[24.722713,42.156805],[24.724894,42.157103],[24.730777,42.157981]]}},{"type":"Feature","properties":{"mode":"bus","n":7,"arr":["4","11","18","20","44","113","222"],"lines":"4, 11, 18, 20, 44, 113, 222"},"geometry":{"type":"LineString","coordinates":[[24.729118,42.158803],[24.729334,42.158205],[24.729285,42.158098],[24.729168,42.15803],[24.726983,42.157687],[24.724364,42.157312],[24.724176,42.157117],[24.722696,42.156906],[24.720778,42.156727]]}},{"type":"Feature","properties":{"mode":"bus","n":5,"arr":["4","11","18","20","99"],"lines":"4, 11, 18, 20, 99"},"geometry":{"type":"LineString","coordinates":[[24.730949,42.158002],[24.734335,42.158471],[24.737813,42.159004]]}},{"type":"Feature","properties":{"mode":"bus","n":5,"arr":["4","11","18","20","99"],"lines":"4, 11, 18, 20, 99"},"geometry":{"type":"LineString","coordinates":[[24.737806,42.159155],[24.734789,42.158671],[24.730916,42.158154]]}},{"type":"Feature","properties":{"mode":"bus","n":8,"arr":["4","9","17","21","25","29","66","93"],"lines":"4, 9, 17, 21, 25, 29, 66, 93"},"geometry":{"type":"LineString","coordinates":[[24.780905,42.128589],[24.779348,42.128093],[24.779157,42.128075],[24.777713,42.12813]]}},{"type":"Feature","properties":{"mode":"bus","n":11,"arr":["4","9","10","17","21","24","25","29","66","93","99"],"lines":"4, 9, 10, 17, 21, 24, 25, 29, 66, 93, 99"},"geometry":{"type":"LineString","coordinates":[[24.785787,42.129282],[24.782741,42.129064],[24.782104,42.128944],[24.780905,42.128589]]}},{"type":"Feature","properties":{"mode":"bus","n":13,"arr":["4","9","10","17","18","21","24","25","29","44","66","93","99"],"lines":"4, 9, 10, 17, 18, 21, 24, 25, 29, 44, 66, 93, 99"},"geometry":{"type":"LineString","coordinates":[[24.790283,42.130968],[24.789794,42.130761],[24.787374,42.129578],[24.786984,42.12941],[24.786652,42.129345],[24.785787,42.129282]]}},{"type":"Feature","properties":{"mode":"bus","n":12,"arr":["4","9","10","17","18","21","24","25","29","66","93","99"],"lines":"4, 9, 10, 17, 18, 21, 24, 25, 29, 66, 93, 99"},"geometry":{"type":"LineString","coordinates":[[24.790283,42.130968],[24.790521,42.130995],[24.792155,42.131025],[24.792923,42.131099],[24.794368,42.131834],[24.794666,42.132094],[24.794789,42.132284],[24.79553,42.134367]]}},{"type":"Feature","properties":{"mode":"bus","n":9,"arr":["4","9","10","17","18","21","24","29","66"],"lines":"4, 9, 10, 17, 18, 21, 24, 29, 66"},"geometry":{"type":"LineString","coordinates":[[24.79553,42.134367],[24.796673,42.137642],[24.79683,42.138357],[24.796757,42.13859],[24.796697,42.138688],[24.794995,42.140608]]}},{"type":"Feature","properties":{"mode":"bus","n":9,"arr":["4","9","10","17","18","21","24","29","66"],"lines":"4, 9, 10, 17, 18, 21, 24, 29, 66"},"geometry":{"type":"LineString","coordinates":[[24.796697,42.138688],[24.796765,42.138737],[24.796774,42.138813],[24.796602,42.139034],[24.79651,42.139073],[24.796368,42.139049]]}},{"type":"Feature","properties":{"mode":"bus","n":5,"arr":["4","10","17","21","66"],"lines":"4, 10, 17, 21, 66"},"geometry":{"type":"LineString","coordinates":[[24.794995,42.140608],[24.797136,42.141645],[24.797438,42.141773],[24.797566,42.141794],[24.797952,42.141824],[24.79844,42.141785],[24.800919,42.141322]]}},{"type":"Feature","properties":{"mode":"bus","n":5,"arr":["4","10","17","21","66"],"lines":"4, 10, 17, 21, 66"},"geometry":{"type":"LineString","coordinates":[[24.798615,42.144351],[24.799426,42.143508],[24.799634,42.143168],[24.799599,42.143004],[24.799064,42.141662]]}},{"type":"Feature","properties":{"mode":"bus","n":5,"arr":["4","11","16","18","20"],"lines":"4, 11, 16, 18, 20"},"geometry":{"type":"LineString","coordinates":[[24.737988,42.159168],[24.737806,42.159155]]}},{"type":"Feature","properties":{"mode":"bus","n":5,"arr":["4","18","20","93","99"],"lines":"4, 18, 20, 93, 99"},"geometry":{"type":"LineString","coordinates":[[24.730916,42.158154],[24.730567,42.15944],[24.730176,42.160709],[24.730059,42.161029],[24.729881,42.161413],[24.729804,42.161518]]}},{"type":"Feature","properties":{"mode":"bus","n":5,"arr":["6","15","24","66","222"],"lines":"6, 15, 24, 66, 222"},"geometry":{"type":"LineString","coordinates":[[24.677246,42.120112],[24.676928,42.120091],[24.676708,42.120051],[24.67661,42.120013],[24.676586,42.119973],[24.676582,42.119941],[24.676583,42.11993],[24.67659,42.119922],[24.676602,42.119917],[24.676665,42.119898],[24.678023,42.120155],[24.67946,42.120347],[24.679759,42.120366],[24.681242,42.120253],[24.682236,42.120229],[24.6856,42.120345],[24.687388,42.120676],[24.687514,42.120673],[24.687534,42.120675],[24.687548,42.120681],[24.687554,42.120692],[24.687553,42.120707],[24.687491,42.120959],[24.687608,42.122822],[24.68786,42.123086],[24.687986,42.123613],[24.687987,42.123628],[24.687981,42.123639],[24.687967,42.123646],[24.687947,42.123648],[24.684384,42.123674]]}},{"type":"Feature","properties":{"mode":"bus","n":5,"arr":["6","15","24","66","222"],"lines":"6, 15, 24, 66, 222"},"geometry":{"type":"LineString","coordinates":[[24.684321,42.120307],[24.684959,42.121506],[24.684934,42.121707],[24.684384,42.123674],[24.684318,42.125092],[24.684311,42.125112],[24.684295,42.125124],[24.684268,42.125129],[24.682421,42.125158],[24.680389,42.124991],[24.680175,42.125024],[24.680094,42.125074],[24.680014,42.12518],[24.679944,42.125496],[24.679968,42.12557],[24.680057,42.125675],[24.680215,42.125741],[24.680303,42.125749],[24.680505,42.125737],[24.681519,42.125552],[24.682053,42.125484],[24.68549,42.125336],[24.687551,42.125303],[24.688114,42.125318],[24.688142,42.125322],[24.688163,42.125334],[24.688177,42.125353],[24.688544,42.126191]]}},{"type":"Feature","properties":{"mode":"bus","n":5,"arr":["6","15","24","66","222"],"lines":"6, 15, 24, 66, 222"},"geometry":{"type":"LineString","coordinates":[[24.690571,42.130783],[24.697015,42.131608],[24.703669,42.132522],[24.70631,42.132862],[24.707776,42.133076],[24.70798,42.133142],[24.709307,42.133717],[24.711661,42.134788],[24.715072,42.136283]]}},{"type":"Feature","properties":{"mode":"bus","n":5,"arr":["6","15","24","66","222"],"lines":"6, 15, 24, 66, 222"},"geometry":{"type":"LineString","coordinates":[[24.70293,42.132413],[24.704237,42.128506]]}},{"type":"Feature","properties":{"mode":"bus","n":6,"arr":["6","15","17","24","66","222"],"lines":"6, 15, 17, 24, 66, 222"},"geometry":{"type":"LineString","coordinates":[[24.688544,42.126191],[24.689782,42.128566],[24.690194,42.129662],[24.690571,42.130783]]}},{"type":"Feature","properties":{"mode":"bus","n":6,"arr":["6","10","15","24","37","66"],"lines":"6, 10, 15, 24, 37, 66"},"geometry":{"type":"LineString","coordinates":[[24.71559,42.136499],[24.717016,42.13715],[24.717431,42.137283],[24.719064,42.137639],[24.720349,42.13789]]}},{"type":"Feature","properties":{"mode":"bus","n":6,"arr":["6","10","15","24","37","66"],"lines":"6, 10, 15, 24, 37, 66"},"geometry":{"type":"LineString","coordinates":[[24.716216,42.13415],[24.71582,42.135728],[24.715682,42.136436],[24.715622,42.136477],[24.715607,42.136485],[24.715594,42.136486],[24.715584,42.13648],[24.715575,42.136468],[24.715543,42.136402],[24.715614,42.136119]]}},{"type":"Feature","properties":{"mode":"bus","n":5,"arr":["6","12","16","18","116"],"lines":"6, 12, 16, 18, 116"},"geometry":{"type":"LineString","coordinates":[[24.741585,42.142081],[24.741531,42.142716],[24.740917,42.147507],[24.740752,42.149238]]}},{"type":"Feature","properties":{"mode":"bus","n":5,"arr":["6","12","16","18","116"],"lines":"6, 12, 16, 18, 116"},"geometry":{"type":"LineString","coordinates":[[24.740572,42.149203],[24.741542,42.14046]]}},{"type":"Feature","properties":{"mode":"bus","n":5,"arr":["6","12","16","18","116"],"lines":"6, 12, 16, 18, 116"},"geometry":{"type":"LineString","coordinates":[[24.74146,42.143275],[24.743023,42.143378],[24.743043,42.143377],[24.743055,42.143372],[24.743059,42.143362],[24.743055,42.143347],[24.742524,42.142238]]}},{"type":"Feature","properties":{"mode":"bus","n":5,"arr":["6","12","16","18","116"],"lines":"6, 12, 16, 18, 116"},"geometry":{"type":"LineString","coordinates":[[24.741657,42.142721],[24.742777,42.142776]]}},{"type":"Feature","properties":{"mode":"bus","n":5,"arr":["6","12","16","18","116"],"lines":"6, 12, 16, 18, 116"},"geometry":{"type":"LineString","coordinates":[[24.740954,42.147227],[24.741568,42.14724],[24.741863,42.147103],[24.741895,42.14708],[24.741909,42.147048],[24.741986,42.146434],[24.742095,42.145195],[24.742093,42.145179],[24.742085,42.145168],[24.742071,42.14516],[24.74205,42.145157],[24.741212,42.145126]]}},{"type":"Feature","properties":{"mode":"bus","n":5,"arr":["6","12","16","18","116"],"lines":"6, 12, 16, 18, 116"},"geometry":{"type":"LineString","coordinates":[[24.741175,42.146393],[24.741986,42.146434]]}},{"type":"Feature","properties":{"mode":"bus","n":7,"arr":["6","10","12","16","18","66","116"],"lines":"6, 10, 12, 16, 18, 66, 116"},"geometry":{"type":"LineString","coordinates":[[24.742524,42.142238],[24.741585,42.142081]]}},{"type":"Feature","properties":{"mode":"bus","n":11,"arr":["6","11","15","20","21","22","37","44","93","99","116"],"lines":"6, 11, 15, 20, 21, 22, 37, 44, 93, 99, 116"},"geometry":{"type":"LineString","coordinates":[[24.740752,42.149238],[24.741787,42.149602],[24.743507,42.150304],[24.744496,42.150772],[24.746404,42.151303],[24.746735,42.151349],[24.747585,42.151313],[24.748419,42.151321],[24.749386,42.151448]]}},{"type":"Feature","properties":{"mode":"bus","n":11,"arr":["6","11","15","20","21","22","37","44","93","99","116"],"lines":"6, 11, 15, 20, 21, 22, 37, 44, 93, 99, 116"},"geometry":{"type":"LineString","coordinates":[[24.750299,42.151891],[24.749778,42.15168],[24.749101,42.151481],[24.748377,42.151383],[24.746729,42.151407],[24.746531,42.151394],[24.745711,42.151212],[24.744371,42.150841],[24.743615,42.150428],[24.742581,42.149974],[24.741748,42.149642],[24.740712,42.149368]]}},{"type":"Feature","properties":{"mode":"bus","n":5,"arr":["6","15","21","22","116"],"lines":"6, 15, 21, 22, 116"},"geometry":{"type":"LineString","coordinates":[[24.749386,42.151448],[24.749753,42.15156],[24.750268,42.151758]]}},{"type":"Feature","properties":{"mode":"bus","n":6,"arr":["6","15","21","22","25","116"],"lines":"6, 15, 21, 22, 25, 116"},"geometry":{"type":"LineString","coordinates":[[24.750268,42.151758],[24.750386,42.151816]]}},{"type":"Feature","properties":{"mode":"bus","n":8,"arr":["6","21","22","25","26","36","66","93"],"lines":"6, 21, 22, 25, 26, 36, 66, 93"},"geometry":{"type":"LineString","coordinates":[[24.779031,42.148869],[24.777646,42.148943]]}},{"type":"Feature","properties":{"mode":"bus","n":8,"arr":["6","21","22","25","26","36","66","93"],"lines":"6, 21, 22, 25, 26, 36, 66, 93"},"geometry":{"type":"LineString","coordinates":[[24.778946,42.149208],[24.777188,42.149306]]}},{"type":"Feature","properties":{"mode":"bus","n":6,"arr":["6","21","22","26","36","66"],"lines":"6, 21, 22, 26, 36, 66"},"geometry":{"type":"LineString","coordinates":[[24.786372,42.14847],[24.783781,42.148627],[24.782416,42.14864],[24.779031,42.148869]]}},{"type":"Feature","properties":{"mode":"bus","n":6,"arr":["6","21","22","26","36","66"],"lines":"6, 21, 22, 26, 36, 66"},"geometry":{"type":"LineString","coordinates":[[24.7864,42.148633],[24.786501,42.149375],[24.7865,42.149391],[24.786493,42.149403],[24.786479,42.14941],[24.786458,42.149414],[24.786235,42.149428],[24.786214,42.149427],[24.786198,42.149421],[24.786188,42.149411],[24.786184,42.149395],[24.78614,42.148921],[24.786104,42.148896],[24.786082,42.148886],[24.786057,42.148884],[24.785563,42.148913],[24.785449,42.148927],[24.785363,42.148969],[24.785117,42.148989],[24.783886,42.149056],[24.783865,42.14906],[24.783851,42.149067],[24.783843,42.149079],[24.783842,42.149095],[24.783892,42.149514],[24.783889,42.149534],[24.783874,42.149548],[24.783848,42.149554],[24.781707,42.149712],[24.781664,42.149708],[24.78163,42.149687],[24.781014,42.149063],[24.780992,42.149047],[24.780967,42.149039],[24.780937,42.149038],[24.778946,42.149208]]}},{"type":"Feature","properties":{"mode":"bus","n":5,"arr":["6","21","26","36","66"],"lines":"6, 21, 26, 36, 66"},"geometry":{"type":"LineString","coordinates":[[24.7864,42.148633],[24.786372,42.14847]]}},{"type":"Feature","properties":{"mode":"bus","n":5,"arr":["6","21","26","36","66"],"lines":"6, 21, 26, 36, 66"},"geometry":{"type":"LineString","coordinates":[[24.786506,42.149411],[24.786616,42.150296]]}},{"type":"Feature","properties":{"mode":"bus","n":5,"arr":["6","21","22","26","116"],"lines":"6, 21, 22, 26, 116"},"geometry":{"type":"LineString","coordinates":[[24.751207,42.152254],[24.750406,42.151936]]}},{"type":"Feature","properties":{"mode":"bus","n":13,"arr":["6","10","11","20","21","22","26","37","44","66","93","99","116"],"lines":"6, 10, 11, 20, 21, 22, 26, 37, 44, 66, 93, 99, 116"},"geometry":{"type":"LineString","coordinates":[[24.750406,42.151936],[24.750299,42.151891]]}},{"type":"Feature","properties":{"mode":"bus","n":8,"arr":["6","15","22","37","44","93","99","116"],"lines":"6, 15, 22, 37, 44, 93, 99, 116"},"geometry":{"type":"LineString","coordinates":[[24.740712,42.149368],[24.740529,42.149321]]}},{"type":"Feature","properties":{"mode":"bus","n":8,"arr":["6","11","12","16","18","20","21","116"],"lines":"6, 11, 12, 16, 18, 20, 21, 116"},"geometry":{"type":"LineString","coordinates":[[24.740529,42.149321],[24.740572,42.149203]]}},{"type":"Feature","properties":{"mode":"bus","n":7,"arr":["6","10","15","24","37","66","222"],"lines":"6, 10, 15, 24, 37, 66, 222"},"geometry":{"type":"LineString","coordinates":[[24.715614,42.136119],[24.716561,42.132285]]}},{"type":"Feature","properties":{"mode":"bus","n":7,"arr":["6","10","15","24","37","66","222"],"lines":"6, 10, 15, 24, 37, 66, 222"},"geometry":{"type":"LineString","coordinates":[[24.716787,42.131873],[24.716829,42.131729]]}},{"type":"Feature","properties":{"mode":"bus","n":7,"arr":["6","10","15","24","37","66","222"],"lines":"6, 10, 15, 24, 37, 66, 222"},"geometry":{"type":"LineString","coordinates":[[24.716679,42.132304],[24.716216,42.13415]]}},{"type":"Feature","properties":{"mode":"bus","n":10,"arr":["6","10","12","15","24","26","29","37","66","222"],"lines":"6, 10, 12, 15, 24, 26, 29, 37, 66, 222"},"geometry":{"type":"LineString","coordinates":[[24.704237,42.128506],[24.708875,42.129377],[24.7089,42.129386],[24.708912,42.129401],[24.708911,42.129421],[24.708564,42.130542],[24.708623,42.13066],[24.708689,42.130696],[24.708926,42.130722],[24.709338,42.130676],[24.711443,42.13107],[24.713507,42.131529],[24.714677,42.131765],[24.71491,42.131918],[24.715183,42.13203],[24.716514,42.132276],[24.716535,42.132278],[24.716551,42.132274],[24.716563,42.132265],[24.71657,42.13225],[24.716695,42.131746],[24.716704,42.131728],[24.716722,42.131719],[24.716747,42.131719],[24.716829,42.131729]]}},{"type":"Feature","properties":{"mode":"bus","n":10,"arr":["6","10","12","15","24","26","29","37","66","222"],"lines":"6, 10, 12, 15, 24, 26, 29, 37, 66, 222"},"geometry":{"type":"LineString","coordinates":[[24.716787,42.131873],[24.716679,42.132304]]}},{"type":"Feature","properties":{"mode":"bus","n":5,"arr":["7","18","20","26","29"],"lines":"7, 18, 20, 26, 29"},"geometry":{"type":"LineString","coordinates":[[24.745409,42.135386],[24.746923,42.135592]]}},{"type":"Feature","properties":{"mode":"bus","n":5,"arr":["7","18","20","26","29"],"lines":"7, 18, 20, 26, 29"},"geometry":{"type":"LineString","coordinates":[[24.742436,42.135162],[24.742999,42.135236],[24.744996,42.135292],[24.745363,42.135375],[24.745375,42.135379],[24.745383,42.135381],[24.745385,42.135383],[24.745382,42.135384],[24.745374,42.135385],[24.745361,42.135385],[24.743484,42.135349],[24.742674,42.135301]]}},{"type":"Feature","properties":{"mode":"bus","n":11,"arr":["7","12","16","17","20","24","26","29","113","116","222"],"lines":"7, 12, 16, 17, 20, 24, 26, 29, 113, 116, 222"},"geometry":{"type":"LineString","coordinates":[[24.741594,42.135115],[24.740655,42.134908],[24.734567,42.133769],[24.732125,42.133361],[24.73176,42.133334],[24.730369,42.13337],[24.729916,42.133361],[24.728607,42.133243],[24.727918,42.133123]]}},{"type":"Feature","properties":{"mode":"bus","n":11,"arr":["7","12","16","17","20","24","26","29","113","116","222"],"lines":"7, 12, 16, 17, 20, 24, 26, 29, 113, 116, 222"},"geometry":{"type":"LineString","coordinates":[[24.729066,42.133168],[24.729999,42.133233],[24.731743,42.133214],[24.73214,42.133258],[24.734598,42.133674],[24.740753,42.134803],[24.741887,42.135031]]}},{"type":"Feature","properties":{"mode":"bus","n":7,"arr":["7","16","17","20","24","113","116"],"lines":"7, 16, 17, 20, 24, 113, 116"},"geometry":{"type":"LineString","coordinates":[[24.727918,42.133123],[24.725913,42.132631],[24.725475,42.13245],[24.725052,42.132207],[24.724801,42.131982],[24.724541,42.13169],[24.722633,42.129188]]}},{"type":"Feature","properties":{"mode":"bus","n":7,"arr":["7","16","17","20","24","113","116"],"lines":"7, 16, 17, 20, 24, 113, 116"},"geometry":{"type":"LineString","coordinates":[[24.722905,42.129089],[24.725033,42.131931],[24.725281,42.132197],[24.725388,42.132273],[24.725807,42.132485],[24.726358,42.132657],[24.727393,42.132904],[24.728083,42.133041],[24.729066,42.133168]]}},{"type":"Feature","properties":{"mode":"bus","n":8,"arr":["7","16","17","20","24","27","113","116"],"lines":"7, 16, 17, 20, 24, 27, 113, 116"},"geometry":{"type":"LineString","coordinates":[[24.722633,42.129188],[24.722568,42.129092]]}},{"type":"Feature","properties":{"mode":"bus","n":5,"arr":["7","16","17","24","116"],"lines":"7, 16, 17, 24, 116"},"geometry":{"type":"LineString","coordinates":[[24.722568,42.129092],[24.722832,42.128992]]}},{"type":"Feature","properties":{"mode":"bus","n":6,"arr":["7","16","17","24","27","116"],"lines":"7, 16, 17, 24, 27, 116"},"geometry":{"type":"LineString","coordinates":[[24.722832,42.128992],[24.725641,42.1282],[24.727712,42.127659],[24.732656,42.126588],[24.733493,42.126374]]}},{"type":"Feature","properties":{"mode":"bus","n":6,"arr":["7","16","17","24","27","116"],"lines":"7, 16, 17, 24, 27, 116"},"geometry":{"type":"LineString","coordinates":[[24.733535,42.126462],[24.732794,42.126644],[24.727756,42.127733],[24.725689,42.128284],[24.722905,42.129089]]}},{"type":"Feature","properties":{"mode":"bus","n":6,"arr":["7","17","24","27","36","116"],"lines":"7, 17, 24, 27, 36, 116"},"geometry":{"type":"LineString","coordinates":[[24.733493,42.126374],[24.738924,42.12463]]}},{"type":"Feature","properties":{"mode":"bus","n":6,"arr":["7","17","24","27","36","116"],"lines":"7, 17, 24, 27, 36, 116"},"geometry":{"type":"LineString","coordinates":[[24.738984,42.124722],[24.733535,42.126462]]}},{"type":"Feature","properties":{"mode":"bus","n":12,"arr":["7","12","16","17","18","20","24","26","29","113","116","222"],"lines":"7, 12, 16, 17, 18, 20, 24, 26, 29, 113, 116, 222"},"geometry":{"type":"LineString","coordinates":[[24.741887,42.135031],[24.742436,42.135162]]}},{"type":"Feature","properties":{"mode":"bus","n":6,"arr":["9","10","18","29","44","99"],"lines":"9, 10, 18, 29, 44, 99"},"geometry":{"type":"LineString","coordinates":[[24.763626,42.135618],[24.763254,42.136221]]}},{"type":"Feature","properties":{"mode":"bus","n":6,"arr":["9","10","18","29","44","99"],"lines":"9, 10, 18, 29, 44, 99"},"geometry":{"type":"LineString","coordinates":[[24.763548,42.135446],[24.763445,42.135569],[24.763072,42.136172]]}},{"type":"Feature","properties":{"mode":"bus","n":5,"arr":["10","12","26","29","37"],"lines":"10, 12, 26, 29, 37"},"geometry":{"type":"LineString","coordinates":[[24.701735,42.127821],[24.701666,42.127836],[24.701618,42.127884],[24.70161,42.12796],[24.701612,42.127982],[24.701626,42.127999],[24.701649,42.128012],[24.701818,42.128077],[24.701907,42.128086],[24.702071,42.128075],[24.702088,42.128072],[24.702098,42.128066],[24.702102,42.128056],[24.702098,42.128043],[24.702072,42.12799],[24.70199,42.127917],[24.701814,42.127828]]}},{"type":"Feature","properties":{"mode":"bus","n":5,"arr":["10","12","26","29","37"],"lines":"10, 12, 26, 29, 37"},"geometry":{"type":"LineString","coordinates":[[24.706637,42.128518],[24.706528,42.128944]]}},{"type":"Feature","properties":{"mode":"bus","n":5,"arr":["10","12","26","29","37"],"lines":"10, 12, 26, 29, 37"},"geometry":{"type":"LineString","coordinates":[[24.702112,42.128072],[24.704237,42.128506]]}},{"type":"Feature","properties":{"mode":"bus","n":5,"arr":["10","12","26","29","37"],"lines":"10, 12, 26, 29, 37"},"geometry":{"type":"LineString","coordinates":[[24.708619,42.13035],[24.708652,42.13048],[24.708752,42.13055],[24.709338,42.130676]]}},{"type":"Feature","properties":{"mode":"bus","n":6,"arr":["10","12","26","29","37","222"],"lines":"10, 12, 26, 29, 37, 222"},"geometry":{"type":"LineString","coordinates":[[24.716679,42.132304],[24.716561,42.132285]]}},{"type":"Feature","properties":{"mode":"bus","n":5,"arr":["11","17","24","37","116"],"lines":"11, 17, 24, 37, 116"},"geometry":{"type":"LineString","coordinates":[[24.758622,42.118999],[24.756963,42.11892],[24.756386,42.118847],[24.756186,42.11887],[24.756022,42.118933],[24.755951,42.119003],[24.755872,42.119178]]}},{"type":"Feature","properties":{"mode":"bus","n":5,"arr":["11","17","24","36","116"],"lines":"11, 17, 24, 36, 116"},"geometry":{"type":"LineString","coordinates":[[24.75237,42.122512],[24.751257,42.122424],[24.750271,42.122428],[24.749539,42.122495],[24.747686,42.122777]]}},{"type":"Feature","properties":{"mode":"bus","n":5,"arr":["11","17","24","36","116"],"lines":"11, 17, 24, 36, 116"},"geometry":{"type":"LineString","coordinates":[[24.747682,42.1229],[24.749174,42.122665],[24.750255,42.122546],[24.75109,42.122531],[24.752355,42.122635]]}},{"type":"Feature","properties":{"mode":"bus","n":6,"arr":["11","12","16","18","20","21"],"lines":"11, 12, 16, 18, 20, 21"},"geometry":{"type":"LineString","coordinates":[[24.740712,42.149368],[24.739688,42.151096],[24.73886,42.152042],[24.738731,42.152392],[24.738705,42.152711],[24.738674,42.155739],[24.738684,42.155772],[24.738712,42.155797],[24.739739,42.156386],[24.739753,42.156397],[24.739759,42.156409],[24.739757,42.156422],[24.739745,42.156435],[24.739497,42.156646],[24.739475,42.156658],[24.739452,42.15666],[24.739427,42.15665],[24.739017,42.156401]]}},{"type":"Feature","properties":{"mode":"bus","n":6,"arr":["11","12","16","18","20","21"],"lines":"11, 12, 16, 18, 20, 21"},"geometry":{"type":"LineString","coordinates":[[24.737813,42.159004],[24.737819,42.158895],[24.738168,42.157786],[24.738495,42.156496],[24.738529,42.156259],[24.738542,42.152584],[24.738619,42.152231],[24.738752,42.151983],[24.738925,42.151737],[24.739563,42.151057],[24.740529,42.149321]]}},{"type":"Feature","properties":{"mode":"bus","n":6,"arr":["11","12","16","18","20","21"],"lines":"11, 12, 16, 18, 20, 21"},"geometry":{"type":"LineString","coordinates":[[24.73889,42.155903],[24.738757,42.155941],[24.738667,42.156038],[24.738623,42.156486],[24.738127,42.158375],[24.738012,42.159033]]}},{"type":"Feature","properties":{"mode":"bus","n":6,"arr":["11","12","18","20","21","99"],"lines":"11, 12, 18, 20, 21, 99"},"geometry":{"type":"LineString","coordinates":[[24.738012,42.159033],[24.737988,42.159168]]}},{"type":"Feature","properties":{"mode":"bus","n":9,"arr":["11","15","20","21","22","37","44","93","99"],"lines":"11, 15, 20, 21, 22, 37, 44, 93, 99"},"geometry":{"type":"LineString","coordinates":[[24.740572,42.149203],[24.740752,42.149238]]}},{"type":"Feature","properties":{"mode":"bus","n":6,"arr":["11","20","37","44","93","99"],"lines":"11, 20, 37, 44, 93, 99"},"geometry":{"type":"LineString","coordinates":[[24.749386,42.151448],[24.749789,42.151505],[24.749935,42.151485],[24.750028,42.151436],[24.750091,42.151356],[24.750182,42.15099]]}},{"type":"Feature","properties":{"mode":"bus","n":7,"arr":["12","16","17","24","113","116","222"],"lines":"12, 16, 17, 24, 113, 116, 222"},"geometry":{"type":"LineString","coordinates":[[24.742436,42.135162],[24.74249,42.135197],[24.742529,42.135296],[24.742528,42.135464]]}},{"type":"Feature","properties":{"mode":"bus","n":7,"arr":["12","16","17","24","113","116","222"],"lines":"12, 16, 17, 24, 113, 116, 222"},"geometry":{"type":"LineString","coordinates":[[24.741827,42.135728],[24.741778,42.135645],[24.741658,42.1352],[24.741594,42.135115]]}},{"type":"Feature","properties":{"mode":"bus","n":6,"arr":["15","22","37","44","93","99"],"lines":"15, 22, 37, 44, 93, 99"},"geometry":{"type":"LineString","coordinates":[[24.731152,42.147882],[24.733978,42.148275],[24.736984,42.14865],[24.73979,42.14904],[24.740572,42.149203]]}},{"type":"Feature","properties":{"mode":"bus","n":6,"arr":["15","22","37","44","93","99"],"lines":"15, 22, 37, 44, 93, 99"},"geometry":{"type":"LineString","coordinates":[[24.740529,42.149321],[24.739746,42.149158],[24.736963,42.148722],[24.734794,42.148466],[24.731153,42.147993]]}},{"type":"Feature","properties":{"mode":"bus","n":8,"arr":["15","17","37","44","93","99","113","222"],"lines":"15, 17, 37, 44, 93, 99, 113, 222"},"geometry":{"type":"LineString","coordinates":[[24.731012,42.147976],[24.731012,42.147863]]}},{"type":"Feature","properties":{"mode":"bus","n":7,"arr":["17","37","44","93","99","113","222"],"lines":"17, 37, 44, 93, 99, 113, 222"},"geometry":{"type":"LineString","coordinates":[[24.731062,42.152062],[24.731025,42.150661],[24.731012,42.147976]]}},{"type":"Feature","properties":{"mode":"bus","n":7,"arr":["17","37","44","93","99","113","222"],"lines":"17, 37, 44, 93, 99, 113, 222"},"geometry":{"type":"LineString","coordinates":[[24.731153,42.147993],[24.731195,42.151155]]}},{"type":"Feature","properties":{"mode":"bus","n":5,"arr":["17","24","27","36","116"],"lines":"17, 24, 27, 36, 116"},"geometry":{"type":"LineString","coordinates":[[24.738984,42.124722],[24.740803,42.124128]]}},{"type":"Feature","properties":{"mode":"bus","n":5,"arr":["18","29","36","44","99"],"lines":"18, 29, 36, 44, 99"},"geometry":{"type":"LineString","coordinates":[[24.763254,42.136221],[24.762884,42.13614],[24.762401,42.136175],[24.761768,42.136164],[24.755389,42.136259],[24.754674,42.136254]]}},{"type":"Feature","properties":{"mode":"bus","n":5,"arr":["18","29","36","44","99"],"lines":"18, 29, 36, 44, 99"},"geometry":{"type":"LineString","coordinates":[[24.752809,42.136214],[24.753994,42.136208],[24.754536,42.136223],[24.754628,42.136244],[24.754643,42.136248],[24.75465,42.136252],[24.75465,42.136257],[24.754643,42.136262],[24.754629,42.136268],[24.754532,42.136297],[24.754399,42.136301],[24.752712,42.136305]]}},{"type":"Feature","properties":{"mode":"bus","n":5,"arr":["21","25","36","66","93"],"lines":"21, 25, 36, 66, 93"},"geometry":{"type":"LineString","coordinates":[[24.777188,42.149306],[24.775971,42.149287],[24.775049,42.149161],[24.770909,42.148374],[24.765504,42.147381],[24.763264,42.147019]]}},{"type":"Feature","properties":{"mode":"bus","n":5,"arr":["21","25","36","66","93"],"lines":"21, 25, 36, 66, 93"},"geometry":{"type":"LineString","coordinates":[[24.777646,42.148943],[24.776894,42.148973],[24.776382,42.148966],[24.774952,42.148895],[24.774373,42.148836],[24.770752,42.148194],[24.765698,42.147251],[24.763266,42.146868]]}},{"type":"Feature","properties":{"mode":"bus","n":5,"arr":["21","25","36","66","93"],"lines":"21, 25, 36, 66, 93"},"geometry":{"type":"LineString","coordinates":[[24.765275,42.147341],[24.76497,42.148193],[24.764968,42.148209],[24.764973,42.148222],[24.764985,42.148231],[24.765005,42.148237],[24.766259,42.148476],[24.766401,42.148555],[24.770043,42.149239],[24.770068,42.149248],[24.77008,42.149263],[24.770078,42.149283],[24.769837,42.150013],[24.769829,42.150028],[24.769816,42.150037],[24.7698,42.15004],[24.769779,42.150037],[24.768938,42.149842]]}},{"type":"Feature","properties":{"mode":"bus","n":5,"arr":["21","25","36","66","93"],"lines":"21, 25, 36, 66, 93"},"geometry":{"type":"LineString","coordinates":[[24.769863,42.149202],[24.770106,42.148468],[24.770109,42.148446],[24.7701,42.148427],[24.77008,42.148411],[24.7696,42.148135]]}},{"type":"Feature","properties":{"mode":"bus","n":5,"arr":["21","25","36","66","93"],"lines":"21, 25, 36, 66, 93"},"geometry":{"type":"LineString","coordinates":[[24.768974,42.14985],[24.768858,42.150576],[24.76886,42.150597],[24.768874,42.15061],[24.7689,42.150617],[24.770311,42.150774],[24.770332,42.150774],[24.770349,42.150769],[24.77036,42.150759],[24.770365,42.150743],[24.770601,42.14944],[24.770734,42.149097],[24.770909,42.148374]]}},{"type":"Feature","properties":{"mode":"bus","n":5,"arr":["21","25","36","66","93"],"lines":"21, 25, 36, 66, 93"},"geometry":{"type":"LineString","coordinates":[[24.769561,42.148128],[24.769217,42.149084]]}},{"type":"Feature","properties":{"mode":"bus","n":5,"arr":["22","37","44","93","99"],"lines":"22, 37, 44, 93, 99"},"geometry":{"type":"LineString","coordinates":[[24.731012,42.147863],[24.731152,42.147882]]}},{"type":"Feature","properties":{"mode":"bus","n":5,"arr":["44","93","99","113","222"],"lines":"44, 93, 99, 113, 222"},"geometry":{"type":"LineString","coordinates":[[24.731195,42.151155],[24.731222,42.152509],[24.731218,42.155496],[24.730949,42.158002]]}},{"type":"Feature","properties":{"mode":"bus","n":5,"arr":["44","93","99","113","222"],"lines":"44, 93, 99, 113, 222"},"geometry":{"type":"LineString","coordinates":[[24.730777,42.157981],[24.730994,42.156357],[24.731044,42.155745],[24.731073,42.154991],[24.731062,42.152062]]}}]}